{"type":"FeatureCollection","features":[{"type":"Feature","properties":{"route_id":"301","short_name":"301","long_name":"Queen","color":"#0054A6"},"geometry":{"type":"LineString","coordinates":[[-79.478699,43.630967],[-79.478694,43.630877],[-79.47868,43.630832],[-79.478649,43.630808],[-79.478582,43.63077],[-79.47848,43.630752],[-79.478402,43.630781],[-79.478349,43.63083],[-79.4783,43.630913],[-79.478278,43.630986],[-79.478284,43.631037],[-79.478311,43.631076],[-79.478314,43.631081],[-79.478365,43.631128],[-79.478459,43.631202],[-79.478473,43.63124],[-79.478481,43.631289],[-79.478378,43.63151],[-79.478376,43.631518],[-79.478221,43.632003],[-79.477659,43.632181],[-79.477325,43.632289],[-79.4772,43.632325],[-79.477023,43.632383],[-79.476851,43.63246],[-79.476731,43.632527],[-79.476618,43.632604],[-79.476538,43.632667],[-79.476464,43.632734],[-79.476447,43.632748],[-79.476367,43.63282],[-79.476267,43.632909],[-79.476189,43.632972],[-79.475675,43.633377],[-79.47554,43.633483],[-79.475449,43.633562],[-79.475358,43.633643],[-79.475267,43.633724],[-79.475178,43.633809],[-79.475128,43.633854],[-79.475088,43.63389],[-79.475,43.633976],[-79.474823,43.634148],[-79.474738,43.634228],[-79.474652,43.634313],[-79.474567,43.634403],[-79.474493,43.634478],[-79.474482,43.634489],[-79.474398,43.634574],[-79.474315,43.63466],[-79.474232,43.634745],[-79.474126,43.634853],[-79.474028,43.634957],[-79.47393,43.63506],[-79.47383,43.635164],[-79.47373,43.635267],[-79.473629,43.635371],[-79.473525,43.635474],[-79.473493,43.635492],[-79.473321,43.635663],[-79.473202,43.635769],[-79.4731,43.63586],[-79.473002,43.635942],[-79.47292,43.636013],[-79.472901,43.636026],[-79.472841,43.636069],[-79.472733,43.636142],[-79.472618,43.636217],[-79.472528,43.636272],[-79.472373,43.636361],[-79.472317,43.636392],[-79.472262,43.636424],[-79.472205,43.636455],[-79.472148,43.636482],[-79.472091,43.636514],[-79.472033,43.636545],[-79.471975,43.636572],[-79.471916,43.636604],[-79.471857,43.636631],[-79.471798,43.636658],[-79.471738,43.636685],[-79.471677,43.636716],[-79.471616,43.636739],[-79.471555,43.636766],[-79.471493,43.636793],[-79.471432,43.636815],[-79.471369,43.636842],[-79.471306,43.636865],[-79.471243,43.636887],[-79.471179,43.63691],[-79.471115,43.636932],[-79.471043,43.636957],[-79.470986,43.636977],[-79.470922,43.636995],[-79.470856,43.637018],[-79.470791,43.637036],[-79.470725,43.637058],[-79.470659,43.637076],[-79.470592,43.63709],[-79.470533,43.637108],[-79.470526,43.637109],[-79.470449,43.637121],[-79.470364,43.637139],[-79.470279,43.637153],[-79.470194,43.637166],[-79.470108,43.63718],[-79.470023,43.637193],[-79.469937,43.637206],[-79.469914,43.63721],[-79.469851,43.63722],[-79.469766,43.637229],[-79.46968,43.637238],[-79.469593,43.637251],[-79.469507,43.63726],[-79.469419,43.637265],[-79.469295,43.637283],[-79.469172,43.637296],[-79.469048,43.637314],[-79.468979,43.637324],[-79.468924,43.637332],[-79.468801,43.637346],[-79.468678,43.637368],[-79.468555,43.637386],[-79.468432,43.637404],[-79.468402,43.63741],[-79.468309,43.637427],[-79.468187,43.637445],[-79.468064,43.637467],[-79.467942,43.63749],[-79.46782,43.637508],[-79.467698,43.63753],[-79.467577,43.637553],[-79.467455,43.637579],[-79.467282,43.637605],[-79.467168,43.637624],[-79.467066,43.637642],[-79.466964,43.637665],[-79.466862,43.637683],[-79.466761,43.637705],[-79.466659,43.637728],[-79.466559,43.637746],[-79.466452,43.63777],[-79.466358,43.637795],[-79.466257,43.637818],[-79.466157,43.63784],[-79.466058,43.637867],[-79.465958,43.63789],[-79.465859,43.637917],[-79.465761,43.637944],[-79.465662,43.637971],[-79.465564,43.637998],[-79.465466,43.638025],[-79.465368,43.638056],[-79.465271,43.638083],[-79.465174,43.638114],[-79.465074,43.638146],[-79.464968,43.638186],[-79.464862,43.638222],[-79.464755,43.638258],[-79.464648,43.638294],[-79.464541,43.63833],[-79.464433,43.638366],[-79.464326,43.638402],[-79.464217,43.638434],[-79.464109,43.63847],[-79.464,43.638506],[-79.463891,43.638537],[-79.463781,43.638569],[-79.463672,43.6386],[-79.463562,43.638632],[-79.463451,43.638663],[-79.463341,43.63869],[-79.46323,43.638721],[-79.463119,43.638753],[-79.463007,43.63878],[-79.462896,43.638807],[-79.462784,43.638834],[-79.462671,43.638865],[-79.462556,43.638888],[-79.462478,43.638915],[-79.462398,43.638942],[-79.462319,43.638969],[-79.462238,43.638991],[-79.462158,43.639018],[-79.462078,43.639041],[-79.461997,43.639063],[-79.461915,43.639086],[-79.461834,43.639104],[-79.461752,43.639131],[-79.46167,43.639149],[-79.461588,43.639167],[-79.461505,43.639189],[-79.461423,43.639207],[-79.46134,43.639225],[-79.461257,43.639243],[-79.461173,43.639265],[-79.461089,43.639279],[-79.461005,43.639297],[-79.460921,43.63931],[-79.460837,43.639328],[-79.460753,43.639342],[-79.460668,43.639355],[-79.460584,43.639369],[-79.460499,43.639382],[-79.460413,43.639396],[-79.460328,43.639409],[-79.460243,43.639418],[-79.460157,43.639432],[-79.460072,43.639441],[-79.459971,43.639454],[-79.459865,43.639472],[-79.45976,43.63949],[-79.459654,43.639503],[-79.459547,43.639517],[-79.459387,43.639535],[-79.459335,43.639544],[-79.459228,43.639557],[-79.459121,43.639566],[-79.459014,43.63958],[-79.458907,43.639593],[-79.458801,43.639598],[-79.458693,43.639607],[-79.458586,43.63962],[-79.458478,43.639629],[-79.458371,43.639634],[-79.458263,43.639643],[-79.458156,43.639647],[-79.458048,43.639656],[-79.45794,43.63966],[-79.457833,43.639665],[-79.457725,43.639669],[-79.45762,43.639674],[-79.457412,43.639674],[-79.457204,43.639674],[-79.456995,43.639678],[-79.456787,43.639678],[-79.456579,43.639682],[-79.456371,43.639687],[-79.456163,43.639687],[-79.455955,43.639696],[-79.455747,43.6397],[-79.455647,43.639696],[-79.455547,43.639691],[-79.455447,43.639686],[-79.455346,43.639686],[-79.455247,43.639682],[-79.455146,43.639677],[-79.455046,43.639677],[-79.454946,43.639677],[-79.454846,43.639677],[-79.454745,43.639677],[-79.454645,43.639682],[-79.454545,43.639682],[-79.454445,43.639686],[-79.454345,43.639686],[-79.454245,43.639695],[-79.454145,43.639695],[-79.454055,43.639703],[-79.453751,43.639731],[-79.45333,43.639707],[-79.453076,43.639708],[-79.452826,43.63971],[-79.452586,43.639695],[-79.45229,43.639649],[-79.452128,43.63961],[-79.45202,43.639574],[-79.451969,43.639557],[-79.451524,43.63941],[-79.45131,43.639339],[-79.449537,43.639003],[-79.449329,43.638964],[-79.448422,43.638778],[-79.447874,43.638674],[-79.447573,43.638618],[-79.447408,43.638597],[-79.447266,43.638591],[-79.446913,43.63859],[-79.446714,43.638614],[-79.446219,43.638715],[-79.443825,43.639181],[-79.442496,43.639437],[-79.442221,43.63949],[-79.441181,43.639688],[-79.440964,43.639739],[-79.439863,43.639951],[-79.439114,43.640103],[-79.437922,43.640332],[-79.437277,43.640451],[-79.436668,43.640583],[-79.435973,43.64072],[-79.435413,43.640842],[-79.434516,43.641025],[-79.434166,43.641094],[-79.433152,43.6413],[-79.432369,43.641474],[-79.431589,43.641625],[-79.430121,43.641925],[-79.429724,43.641999],[-79.428644,43.642208],[-79.42821,43.642311],[-79.427159,43.64251],[-79.425998,43.642765],[-79.424798,43.643016],[-79.424395,43.643092],[-79.424375,43.643096],[-79.424274,43.643116],[-79.423614,43.643246],[-79.42241,43.643491],[-79.421802,43.643617],[-79.421197,43.643726],[-79.420008,43.643981],[-79.419419,43.644096],[-79.418861,43.644204],[-79.417481,43.64448],[-79.416303,43.644725],[-79.415075,43.644973],[-79.413976,43.645205],[-79.413197,43.645366],[-79.411488,43.6457],[-79.411259,43.645748],[-79.41079,43.645846],[-79.409946,43.645996],[-79.409576,43.64608],[-79.408582,43.646289],[-79.40771,43.646469],[-79.407321,43.646542],[-79.406575,43.646682],[-79.405205,43.646968],[-79.40401,43.647188],[-79.402001,43.647613],[-79.401413,43.647709],[-79.400937,43.647813],[-79.400597,43.647887],[-79.400146,43.647975],[-79.399676,43.648067],[-79.398418,43.648325],[-79.398178,43.648373],[-79.397414,43.648538],[-79.396381,43.648765],[-79.393702,43.649351],[-79.393448,43.649406],[-79.392155,43.649681],[-79.391137,43.649897],[-79.390706,43.649988],[-79.390504,43.65003],[-79.39029,43.650073],[-79.390255,43.650081],[-79.389755,43.650195],[-79.389476,43.650232],[-79.388643,43.650421],[-79.387516,43.650672],[-79.386628,43.650852],[-79.384964,43.651216],[-79.38465,43.65044],[-79.38411,43.649188],[-79.38213,43.649614],[-79.38081,43.649892],[-79.379187,43.650257],[-79.379073,43.650281],[-79.37847,43.650407],[-79.377936,43.650532],[-79.377245,43.650669],[-79.376472,43.650851],[-79.375968,43.650962],[-79.375915,43.650973],[-79.374946,43.651185],[-79.375203,43.651806],[-79.375476,43.652466],[-79.375617,43.652801],[-79.375773,43.653168],[-79.375162,43.653308],[-79.374289,43.653501],[-79.373254,43.653729],[-79.372078,43.653957],[-79.370093,43.654399],[-79.369965,43.654424],[-79.369459,43.654525],[-79.369008,43.65462],[-79.368988,43.654624],[-79.367939,43.654854],[-79.367895,43.654864],[-79.367203,43.655015],[-79.365756,43.65534],[-79.364462,43.655615],[-79.363442,43.65583],[-79.363224,43.65588],[-79.362264,43.656094],[-79.361465,43.65627],[-79.361014,43.656369],[-79.360513,43.656479],[-79.360189,43.656558],[-79.359584,43.656704],[-79.358924,43.656833],[-79.35776,43.657097],[-79.35653,43.657375],[-79.355521,43.657608],[-79.355469,43.657621],[-79.354962,43.657737],[-79.354874,43.657757],[-79.354782,43.657778],[-79.354659,43.657802],[-79.354554,43.657823],[-79.354546,43.657825],[-79.354324,43.657871],[-79.354174,43.657903],[-79.353921,43.657957],[-79.353755,43.657992],[-79.353623,43.658022],[-79.353347,43.65809],[-79.352239,43.658332],[-79.351553,43.658493],[-79.350929,43.658632],[-79.349852,43.658878],[-79.348652,43.659151],[-79.348499,43.659191],[-79.347447,43.659419],[-79.346743,43.65958],[-79.346411,43.659663],[-79.346115,43.659737],[-79.345803,43.659794],[-79.345674,43.659818],[-79.34547,43.659862],[-79.345111,43.659942],[-79.344458,43.660086],[-79.343591,43.660287],[-79.342506,43.660529],[-79.341268,43.660793],[-79.340799,43.660887],[-79.340092,43.661061],[-79.338913,43.661338],[-79.33882,43.661356],[-79.337704,43.661598],[-79.336315,43.661911],[-79.335895,43.662009],[-79.335334,43.662117],[-79.33489,43.662233],[-79.334315,43.662336],[-79.334071,43.662416],[-79.333456,43.662542],[-79.333304,43.662573],[-79.332814,43.662671],[-79.332263,43.662805],[-79.331424,43.662997],[-79.330224,43.663239],[-79.328997,43.663529],[-79.327911,43.663799],[-79.327879,43.663807],[-79.327349,43.66391],[-79.326216,43.664173],[-79.325986,43.664223],[-79.325308,43.664397],[-79.323978,43.664692],[-79.322388,43.665041],[-79.321291,43.665291],[-79.320708,43.66542],[-79.320592,43.665446],[-79.32002,43.665573],[-79.31975,43.665622],[-79.319119,43.665778],[-79.318501,43.665912],[-79.317659,43.666091],[-79.316602,43.66636],[-79.316246,43.666437],[-79.31485,43.666739],[-79.313556,43.66703],[-79.312593,43.667244],[-79.312126,43.667345],[-79.311552,43.667469],[-79.31144,43.667493],[-79.311264,43.667531],[-79.311257,43.667532],[-79.311161,43.667553],[-79.310335,43.667731],[-79.309195,43.66799],[-79.308047,43.668245],[-79.306917,43.668499],[-79.305775,43.668757],[-79.304644,43.669001],[-79.303877,43.669175],[-79.303518,43.669262],[-79.302235,43.66956],[-79.301905,43.669619],[-79.300866,43.669845],[-79.299825,43.670072],[-79.298905,43.670268],[-79.298016,43.670462],[-79.296872,43.670711],[-79.296594,43.670754],[-79.295754,43.670936],[-79.295477,43.670992],[-79.294469,43.67121],[-79.293527,43.6714],[-79.292738,43.671583],[-79.292572,43.671611],[-79.291918,43.671747],[-79.291871,43.671756],[-79.29101,43.671926],[-79.28993,43.672146],[-79.288763,43.672387],[-79.287581,43.672634],[-79.286328,43.672893],[-79.285235,43.673117],[-79.284122,43.673361],[-79.283496,43.673478],[-79.28308,43.67358],[-79.28239,43.673722],[-79.28186,43.673824],[-79.281829,43.67383],[-79.28174,43.673773],[-79.281593,43.673736],[-79.281485,43.673709],[-79.281389,43.673688],[-79.281334,43.673689]]}},{"type":"Feature","properties":{"route_id":"304","short_name":"304","long_name":"King","color":"#0054A6"},"geometry":{"type":"LineString","coordinates":[[-79.453581,43.656711],[-79.453727,43.656725],[-79.453836,43.6568],[-79.453921,43.657031],[-79.453912,43.657036],[-79.453207,43.657182],[-79.452713,43.657286],[-79.452663,43.657101],[-79.452605,43.656884],[-79.452453,43.656321],[-79.452188,43.655192],[-79.451846,43.653882],[-79.451778,43.653557],[-79.451443,43.652533],[-79.451388,43.652349],[-79.451303,43.652119],[-79.451211,43.65188],[-79.451069,43.651515],[-79.450659,43.65045],[-79.45035,43.649662],[-79.45007,43.648947],[-79.450027,43.648832],[-79.449726,43.648054],[-79.449393,43.647204],[-79.449059,43.646337],[-79.448712,43.645446],[-79.448371,43.644552],[-79.448041,43.643707],[-79.447704,43.64283],[-79.447353,43.641932],[-79.447016,43.641076],[-79.446679,43.640199],[-79.446413,43.639515],[-79.446361,43.639385],[-79.446286,43.6392],[-79.44622,43.639036],[-79.446189,43.638931],[-79.446186,43.638868],[-79.44619,43.638806],[-79.446219,43.638715],[-79.44597,43.63856],[-79.445494,43.638331],[-79.445184,43.638206],[-79.444623,43.638],[-79.444201,43.637858],[-79.443987,43.637785],[-79.443657,43.637663],[-79.442774,43.637277],[-79.442562,43.637186],[-79.442271,43.637044],[-79.441989,43.636852],[-79.44156,43.636637],[-79.441462,43.636594],[-79.441345,43.636543],[-79.441242,43.636515],[-79.440783,43.636458],[-79.439968,43.636419],[-79.439897,43.636412],[-79.439827,43.636421],[-79.439746,43.63643],[-79.438596,43.636662],[-79.437396,43.636891],[-79.437274,43.636926],[-79.436037,43.637176],[-79.434725,43.63746],[-79.433283,43.637743],[-79.431871,43.638024],[-79.430916,43.63821],[-79.430356,43.638345],[-79.429135,43.638582],[-79.428858,43.638653],[-79.427374,43.63896],[-79.42634,43.63917],[-79.42605,43.639228],[-79.42484,43.639466],[-79.423553,43.639723],[-79.422281,43.639977],[-79.42129,43.640179],[-79.42038,43.640368],[-79.420159,43.640414],[-79.419553,43.640534],[-79.417244,43.640991],[-79.41664,43.641112],[-79.416459,43.641148],[-79.415801,43.64128],[-79.415018,43.641437],[-79.413797,43.64168],[-79.412709,43.641911],[-79.41197,43.642042],[-79.411308,43.642175],[-79.410724,43.642292],[-79.410143,43.642412],[-79.408759,43.642704],[-79.407718,43.642909],[-79.405285,43.643402],[-79.402705,43.643926],[-79.400838,43.644302],[-79.400827,43.644305],[-79.400097,43.644453],[-79.399203,43.644637],[-79.398509,43.644779],[-79.397647,43.644954],[-79.395046,43.64547],[-79.39364,43.645762],[-79.392328,43.646054],[-79.391093,43.646316],[-79.389773,43.646603],[-79.388151,43.646965],[-79.38611,43.647395],[-79.385461,43.647521],[-79.384806,43.647662],[-79.383578,43.647924],[-79.383522,43.647936],[-79.382056,43.648261],[-79.380278,43.64865],[-79.380173,43.648677],[-79.378821,43.648961],[-79.377918,43.649148],[-79.376731,43.649405],[-79.375961,43.649585],[-79.375719,43.64964],[-79.375586,43.649673],[-79.375028,43.649782],[-79.374412,43.649921],[-79.373816,43.650051],[-79.372566,43.650323],[-79.371913,43.650463],[-79.370693,43.650732],[-79.369474,43.651001],[-79.368261,43.651277],[-79.36705,43.651547],[-79.366087,43.651764],[-79.364412,43.652123],[-79.364245,43.652165],[-79.364158,43.652212],[-79.363245,43.652729],[-79.36241,43.653218],[-79.361874,43.653497],[-79.361569,43.653683],[-79.36122,43.653895],[-79.361139,43.653944],[-79.36099,43.654034],[-79.360848,43.654118],[-79.36074,43.654182],[-79.360349,43.65441],[-79.359711,43.654793],[-79.359668,43.654822],[-79.359651,43.654833],[-79.359449,43.654967],[-79.359215,43.655098],[-79.358941,43.655262],[-79.358415,43.655582],[-79.358041,43.655779],[-79.358009,43.655796],[-79.357654,43.656007],[-79.357549,43.65607],[-79.357411,43.656153],[-79.356979,43.656382],[-79.356158,43.656868],[-79.355285,43.657514],[-79.355247,43.657552],[-79.35517,43.657613],[-79.354962,43.657737],[-79.354874,43.657757],[-79.354782,43.657778],[-79.354659,43.657802],[-79.354554,43.657823],[-79.354546,43.657825],[-79.354324,43.657871],[-79.354174,43.657903],[-79.353921,43.657957],[-79.353755,43.657992],[-79.353623,43.658022],[-79.353347,43.65809],[-79.352239,43.658332],[-79.351553,43.658493],[-79.350929,43.658632],[-79.349852,43.658878],[-79.350011,43.659257],[-79.350037,43.659318],[-79.350148,43.659584],[-79.350519,43.660474],[-79.351361,43.662467],[-79.351607,43.663057],[-79.351807,43.663536],[-79.352038,43.664089],[-79.352242,43.664574],[-79.352624,43.665486],[-79.352911,43.66616],[-79.35318,43.666805],[-79.353237,43.666941],[-79.353425,43.667416],[-79.35343,43.667479],[-79.353433,43.667551],[-79.353421,43.667614],[-79.353384,43.667758],[-79.353168,43.668253],[-79.353092,43.668473],[-79.35303,43.668801],[-79.352997,43.669076],[-79.352995,43.669283],[-79.353006,43.66936],[-79.353034,43.66945],[-79.353071,43.669522],[-79.353117,43.669594],[-79.353215,43.669706],[-79.353933,43.67049],[-79.354096,43.670671],[-79.354256,43.670851],[-79.354385,43.671],[-79.354528,43.671265],[-79.354932,43.672008],[-79.355377,43.672499],[-79.356099,43.673235],[-79.356228,43.673374],[-79.35708,43.674264],[-79.35758,43.674798],[-79.358084,43.675401],[-79.358872,43.676202],[-79.358918,43.676307],[-79.358936,43.676401],[-79.358841,43.676775],[-79.358714,43.676868],[-79.358533,43.676957],[-79.358355,43.677043],[-79.358122,43.677153],[-79.358002,43.677226],[-79.357942,43.677307],[-79.357959,43.677433]]}},{"type":"Feature","properties":{"route_id":"305","short_name":"305","long_name":"Dundas","color":"#0054A6"},"geometry":{"type":"LineString","coordinates":[[-79.358352,43.676945],[-79.35802,43.677113],[-79.357956,43.677186],[-79.357942,43.677307],[-79.357953,43.677426],[-79.358159,43.677444],[-79.358451,43.677476],[-79.358638,43.677514],[-79.358704,43.677256],[-79.358829,43.676772],[-79.358924,43.676395],[-79.358905,43.6763],[-79.35886,43.676195],[-79.358072,43.675395],[-79.357567,43.67479],[-79.357067,43.674258],[-79.356215,43.673368],[-79.356104,43.67325],[-79.355363,43.672493],[-79.354918,43.672001],[-79.354516,43.671258],[-79.354371,43.670993],[-79.354242,43.670844],[-79.354084,43.670664],[-79.35392,43.670484],[-79.353202,43.669699],[-79.353104,43.669587],[-79.353058,43.669515],[-79.353021,43.669443],[-79.352992,43.669353],[-79.352982,43.669277],[-79.352984,43.669069],[-79.353016,43.668795],[-79.35308,43.668466],[-79.353155,43.668246],[-79.35337,43.667752],[-79.353408,43.667608],[-79.353419,43.667544],[-79.353419,43.667541],[-79.353416,43.667473],[-79.353412,43.667409],[-79.353224,43.666934],[-79.352897,43.666153],[-79.35261,43.665479],[-79.352229,43.664568],[-79.352025,43.664082],[-79.351794,43.663529],[-79.351594,43.663051],[-79.351348,43.662461],[-79.351787,43.66235],[-79.352232,43.662236],[-79.353071,43.66207],[-79.353605,43.66196],[-79.353879,43.661909],[-79.35449,43.661853],[-79.354899,43.661794],[-79.355068,43.661774],[-79.355142,43.661763],[-79.355299,43.661746],[-79.355437,43.661727],[-79.355648,43.661699],[-79.355665,43.661698],[-79.355875,43.661673],[-79.356076,43.66165],[-79.356373,43.661616],[-79.356377,43.661616],[-79.356622,43.661552],[-79.358148,43.661191],[-79.359498,43.660879],[-79.359633,43.660848],[-79.360011,43.660758],[-79.360146,43.660733],[-79.360429,43.660677],[-79.360473,43.660665],[-79.361007,43.660524],[-79.36177,43.660353],[-79.362988,43.66008],[-79.363744,43.659918],[-79.363979,43.659863],[-79.364487,43.659755],[-79.364518,43.65975],[-79.365156,43.659615],[-79.365228,43.659599],[-79.366003,43.659433],[-79.366569,43.659306],[-79.366656,43.659286],[-79.367339,43.659115],[-79.36793,43.658983],[-79.36797,43.658977],[-79.368555,43.658864],[-79.369499,43.658651],[-79.370204,43.658482],[-79.371019,43.658287],[-79.371339,43.65829],[-79.371419,43.658295],[-79.371538,43.65829],[-79.371662,43.658281],[-79.371778,43.658276],[-79.371921,43.658267],[-79.37205,43.65825],[-79.37213,43.658245],[-79.372236,43.658214],[-79.372292,43.658194],[-79.372377,43.658163],[-79.372549,43.658084],[-79.372629,43.658036],[-79.372742,43.657967],[-79.372855,43.657882],[-79.372944,43.65778],[-79.373007,43.6577],[-79.373095,43.657607],[-79.373198,43.657505],[-79.373304,43.657395],[-79.373396,43.657321],[-79.373446,43.657296],[-79.374554,43.65706],[-79.375652,43.656813],[-79.376548,43.656641],[-79.377134,43.656494],[-79.377702,43.656379],[-79.378303,43.656255],[-79.378865,43.65614],[-79.379037,43.656143],[-79.379133,43.656171],[-79.379358,43.656235],[-79.379563,43.656284],[-79.380173,43.656436],[-79.380266,43.656452],[-79.380302,43.656453],[-79.380308,43.656454],[-79.380355,43.656451],[-79.380913,43.656322],[-79.383753,43.655709],[-79.385212,43.655419],[-79.386047,43.655234],[-79.387148,43.655017],[-79.388301,43.654783],[-79.388418,43.654795],[-79.388523,43.654809],[-79.388644,43.654806],[-79.388717,43.654795],[-79.389212,43.654677],[-79.389991,43.654505],[-79.390201,43.654478],[-79.39028,43.654483],[-79.390366,43.654496],[-79.390445,43.654496],[-79.390533,43.65449],[-79.390648,43.65447],[-79.391448,43.654326],[-79.393847,43.653816],[-79.394531,43.653674],[-79.394631,43.653652],[-79.395544,43.653464],[-79.396152,43.65334],[-79.397019,43.653162],[-79.397258,43.653109],[-79.397425,43.653072],[-79.398037,43.652937],[-79.399212,43.652672],[-79.399857,43.652543],[-79.400327,43.652447],[-79.401134,43.652267],[-79.401645,43.652155],[-79.402253,43.652022],[-79.402833,43.651919],[-79.403735,43.651733],[-79.403839,43.651734],[-79.403902,43.651738],[-79.403988,43.651766],[-79.404397,43.65195],[-79.404833,43.652151],[-79.405235,43.652321],[-79.405349,43.652357],[-79.405462,43.65237],[-79.405585,43.652369],[-79.406009,43.652304],[-79.406604,43.652185],[-79.407263,43.652051],[-79.408477,43.651786],[-79.409096,43.651665],[-79.40971,43.651547],[-79.410311,43.651423],[-79.410907,43.651301],[-79.411591,43.65117],[-79.412186,43.651046],[-79.412801,43.650921],[-79.413406,43.650791],[-79.413487,43.650774],[-79.413923,43.650697],[-79.413971,43.650687],[-79.414935,43.650491],[-79.415973,43.65029],[-79.417056,43.650061],[-79.418274,43.649818],[-79.418829,43.649706],[-79.418891,43.649693],[-79.419526,43.649565],[-79.420203,43.649435],[-79.420237,43.649428],[-79.420769,43.649326],[-79.42277,43.649379],[-79.423248,43.649394],[-79.423793,43.649414],[-79.423907,43.649419],[-79.42399,43.64942],[-79.424739,43.64943],[-79.425811,43.649475],[-79.426783,43.649493],[-79.428111,43.649551],[-79.429816,43.649577],[-79.4309,43.649617],[-79.430998,43.64962],[-79.431442,43.649644],[-79.432475,43.649687],[-79.433132,43.649731],[-79.433678,43.649765],[-79.435591,43.649883],[-79.436948,43.649973],[-79.437,43.649977],[-79.438309,43.650081],[-79.439719,43.650161],[-79.441008,43.650274],[-79.441434,43.650314],[-79.442046,43.650445],[-79.442137,43.650467],[-79.443011,43.65068],[-79.444033,43.650905],[-79.445311,43.651195],[-79.446797,43.651583],[-79.447595,43.651921],[-79.448075,43.652109],[-79.449196,43.652625],[-79.450103,43.653044],[-79.451574,43.653708],[-79.451834,43.653876],[-79.452177,43.655186],[-79.452442,43.656314],[-79.452625,43.656998],[-79.4527,43.656901],[-79.452777,43.656857],[-79.453142,43.656801],[-79.453673,43.656751]]}},{"type":"Feature","properties":{"route_id":"306","short_name":"306","long_name":"Carlton","color":"#0054A6"},"geometry":{"type":"LineString","coordinates":[[-79.302271,43.689084],[-79.301951,43.689153],[-79.301613,43.689236],[-79.301288,43.689316],[-79.301224,43.689316],[-79.301167,43.689307],[-79.30111,43.689283],[-79.301071,43.689254],[-79.30104,43.689211],[-79.301014,43.68916],[-79.301013,43.689107],[-79.301027,43.689057],[-79.301065,43.689018],[-79.301128,43.688984],[-79.301823,43.688801],[-79.302109,43.688726],[-79.302045,43.688598],[-79.301831,43.688145],[-79.301598,43.687675],[-79.301421,43.687254],[-79.300935,43.686107],[-79.300585,43.685276],[-79.300393,43.68482],[-79.300274,43.684438],[-79.300213,43.684241],[-79.300146,43.684068],[-79.300141,43.684005],[-79.300155,43.68395],[-79.301524,43.683657],[-79.302845,43.68337],[-79.304179,43.683083],[-79.305473,43.682808],[-79.30599,43.682653],[-79.306866,43.682426],[-79.307795,43.68217],[-79.30812,43.682087],[-79.308276,43.682031],[-79.308422,43.681963],[-79.308654,43.681847],[-79.308758,43.6818],[-79.309768,43.681271],[-79.310754,43.680793],[-79.311655,43.680479],[-79.311906,43.680376],[-79.312234,43.680138],[-79.312648,43.679828],[-79.312795,43.679724],[-79.31342,43.679262],[-79.313578,43.679154],[-79.314168,43.678696],[-79.314986,43.67809],[-79.315127,43.677986],[-79.315174,43.677933],[-79.31523,43.677843],[-79.315631,43.677276],[-79.315767,43.677155],[-79.316784,43.67627],[-79.316966,43.676176],[-79.317145,43.676089],[-79.31725,43.676064],[-79.31735,43.676041],[-79.317508,43.676015],[-79.318099,43.67593],[-79.319045,43.675805],[-79.319473,43.675716],[-79.319554,43.675698],[-79.319639,43.675671],[-79.319687,43.675644],[-79.319928,43.67553],[-79.320028,43.675491],[-79.320097,43.675447],[-79.3203,43.675337],[-79.320203,43.675065],[-79.319309,43.672908],[-79.3204,43.672666],[-79.321235,43.672471],[-79.321861,43.672313],[-79.322914,43.672081],[-79.32399,43.671844],[-79.324938,43.671611],[-79.325074,43.67158],[-79.325938,43.671401],[-79.326922,43.671186],[-79.328022,43.670923],[-79.33057,43.67035],[-79.330692,43.670319],[-79.331716,43.670086],[-79.332011,43.670033],[-79.333068,43.669814],[-79.335608,43.66925],[-79.336586,43.669018],[-79.337583,43.668796],[-79.338918,43.668503],[-79.3404,43.668173],[-79.340441,43.668164],[-79.341141,43.668016],[-79.342309,43.667754],[-79.342778,43.667636],[-79.343773,43.667415],[-79.345195,43.667094],[-79.347034,43.666678],[-79.348541,43.666356],[-79.349458,43.666151],[-79.35214,43.665559],[-79.352471,43.665486],[-79.352624,43.665486],[-79.352776,43.665482],[-79.353525,43.665273],[-79.353978,43.665148],[-79.353993,43.665144],[-79.354339,43.665048],[-79.354732,43.664938],[-79.355152,43.664821],[-79.355179,43.664814],[-79.355293,43.664781],[-79.355774,43.664644],[-79.355963,43.664602],[-79.356303,43.664533],[-79.35649,43.66449],[-79.356529,43.664478],[-79.356711,43.664423],[-79.356869,43.664375],[-79.358923,43.663799],[-79.359244,43.663707],[-79.359635,43.663582],[-79.359762,43.663553],[-79.360327,43.663426],[-79.360895,43.663296],[-79.360917,43.663291],[-79.361498,43.663158],[-79.362334,43.662971],[-79.363184,43.662791],[-79.364037,43.662587],[-79.365978,43.662185],[-79.366045,43.66217],[-79.367035,43.66195],[-79.366793,43.661357],[-79.366665,43.661043],[-79.366532,43.660718],[-79.366525,43.6607],[-79.366309,43.660167],[-79.366286,43.66011],[-79.366194,43.659881],[-79.366016,43.659441],[-79.366582,43.659312],[-79.366668,43.659292],[-79.367351,43.659122],[-79.367943,43.658991],[-79.367983,43.658983],[-79.368567,43.658871],[-79.369511,43.658659],[-79.370216,43.65849],[-79.371032,43.658294],[-79.371351,43.658296],[-79.371432,43.658301],[-79.371552,43.658296],[-79.371676,43.658288],[-79.37179,43.658282],[-79.371933,43.658273],[-79.372062,43.658258],[-79.372144,43.658251],[-79.372249,43.65822],[-79.372305,43.6582],[-79.372389,43.65817],[-79.372561,43.658091],[-79.372641,43.658042],[-79.372755,43.657974],[-79.372868,43.657888],[-79.372956,43.657787],[-79.37302,43.657707],[-79.373108,43.657614],[-79.373211,43.657513],[-79.373316,43.657402],[-79.373409,43.657328],[-79.373458,43.657303],[-79.374566,43.657067],[-79.375666,43.65682],[-79.376561,43.656649],[-79.377148,43.656501],[-79.377716,43.656385],[-79.378317,43.656262],[-79.378878,43.656146],[-79.37905,43.656149],[-79.379147,43.656177],[-79.379372,43.656241],[-79.379576,43.656291],[-79.380187,43.656443],[-79.380279,43.656458],[-79.380314,43.656459],[-79.380321,43.65646],[-79.380368,43.656458],[-79.380926,43.656328],[-79.383766,43.655715],[-79.38406,43.656435],[-79.384415,43.657307],[-79.384712,43.658074],[-79.384893,43.65851],[-79.385195,43.659225],[-79.385854,43.660815],[-79.386682,43.660661],[-79.387425,43.660514],[-79.390494,43.659858],[-79.39259,43.659396],[-79.393484,43.659199],[-79.394087,43.65907],[-79.39461,43.658968],[-79.394681,43.658954],[-79.395294,43.658826],[-79.395902,43.6587],[-79.396212,43.65864],[-79.397036,43.658484],[-79.398198,43.65826],[-79.399052,43.658096],[-79.399629,43.657984],[-79.399757,43.657968],[-79.399835,43.657969],[-79.400048,43.657948],[-79.400181,43.657968],[-79.400279,43.657966],[-79.40081,43.657858],[-79.401033,43.657816],[-79.401845,43.657652],[-79.402826,43.657458],[-79.4032,43.657382],[-79.403811,43.657261],[-79.404076,43.657208],[-79.40453,43.657117],[-79.405228,43.656979],[-79.405832,43.656858],[-79.406519,43.656721],[-79.407722,43.656481],[-79.408354,43.656353],[-79.408959,43.656229],[-79.410162,43.655971],[-79.411408,43.655714],[-79.412616,43.655462],[-79.413878,43.655213],[-79.415057,43.654971],[-79.415179,43.65495],[-79.415294,43.654937],[-79.415435,43.654927],[-79.415555,43.654939],[-79.415609,43.654951],[-79.416733,43.655115],[-79.417079,43.65517],[-79.417906,43.655245],[-79.418022,43.655254],[-79.418091,43.655258],[-79.418184,43.655251],[-79.418249,43.655252],[-79.418329,43.655245],[-79.418587,43.655234],[-79.418767,43.655201],[-79.418873,43.655186],[-79.419032,43.655157],[-79.419714,43.655039],[-79.420273,43.65491],[-79.421488,43.654656],[-79.422705,43.6544],[-79.423959,43.654122],[-79.425186,43.653868],[-79.426404,43.6536],[-79.427241,43.653425],[-79.428186,43.653227],[-79.429451,43.652964],[-79.429677,43.652915],[-79.429876,43.652868],[-79.430033,43.652862],[-79.430155,43.652879],[-79.430305,43.652912],[-79.430382,43.652921],[-79.430483,43.652926],[-79.430588,43.652926],[-79.43072,43.652913],[-79.430813,43.652898],[-79.43108,43.652848],[-79.43168,43.652743],[-79.432562,43.652569],[-79.433119,43.652452],[-79.434584,43.652147],[-79.436357,43.651813],[-79.4368,43.651727],[-79.436881,43.651712],[-79.43759,43.651574],[-79.438265,43.651438],[-79.438793,43.651332],[-79.439766,43.651107],[-79.439844,43.65108],[-79.439999,43.651012],[-79.440342,43.650767],[-79.44102,43.650281],[-79.441446,43.65032],[-79.442058,43.650451],[-79.442149,43.650474],[-79.443023,43.650686],[-79.444045,43.650912],[-79.445323,43.651201],[-79.446809,43.651589],[-79.447606,43.651927],[-79.448086,43.652115],[-79.451069,43.651515],[-79.453409,43.651053],[-79.453913,43.650948],[-79.454882,43.650746],[-79.455027,43.650696],[-79.456066,43.650177],[-79.4566,43.649929],[-79.456999,43.64971],[-79.457507,43.649025],[-79.457628,43.64886],[-79.457804,43.648628],[-79.457878,43.648442],[-79.45815,43.647972],[-79.458171,43.64791],[-79.458169,43.647884],[-79.458158,43.647849],[-79.458127,43.647814],[-79.45807,43.647783]]}},{"type":"Feature","properties":{"route_id":"310","short_name":"310","long_name":"Spadina","color":"#0054A6"},"geometry":{"type":"LineString","coordinates":[[-79.379121,43.645601],[-79.379161,43.645547],[-79.379165,43.645492],[-79.379138,43.645436],[-79.379096,43.645391],[-79.379024,43.645342],[-79.378957,43.645326],[-79.378877,43.64531],[-79.378822,43.645306],[-79.378762,43.645168],[-79.378627,43.644861],[-79.378477,43.644513],[-79.377912,43.643217],[-79.377865,43.643109],[-79.377823,43.643006],[-79.377789,43.642922],[-79.377686,43.64265],[-79.377557,43.642303],[-79.377461,43.642078],[-79.376841,43.641152],[-79.379136,43.640359],[-79.380205,43.639962],[-79.380238,43.639953],[-79.38027,43.639939],[-79.380304,43.63993],[-79.380329,43.639923],[-79.380337,43.639921],[-79.380371,43.639912],[-79.380405,43.639903],[-79.380439,43.639899],[-79.380474,43.639894],[-79.380508,43.63989],[-79.380543,43.639881],[-79.380578,43.639877],[-79.380613,43.639872],[-79.380648,43.639868],[-79.382623,43.639523],[-79.382724,43.639505],[-79.38442,43.63921],[-79.385463,43.639029],[-79.386573,43.638854],[-79.386751,43.638826],[-79.387608,43.638615],[-79.388636,43.638355],[-79.38957,43.638149],[-79.390645,43.637916],[-79.390911,43.637858],[-79.391597,43.63771],[-79.391889,43.637653],[-79.392173,43.638327],[-79.392226,43.638453],[-79.392298,43.638634],[-79.392302,43.638642],[-79.392339,43.638748],[-79.392364,43.63882],[-79.392435,43.639025],[-79.393004,43.640562],[-79.393344,43.641344],[-79.393399,43.641479],[-79.393425,43.641543],[-79.393515,43.641761],[-79.39369,43.642171],[-79.393928,43.642738],[-79.394113,43.643171],[-79.394292,43.64359],[-79.394487,43.64403],[-79.394575,43.644282],[-79.394624,43.644422],[-79.394772,43.644788],[-79.394785,43.644821],[-79.394888,43.645078],[-79.395046,43.64547],[-79.395251,43.645948],[-79.395365,43.646214],[-79.39557,43.64674],[-79.395829,43.647397],[-79.395969,43.647807],[-79.396074,43.648033],[-79.396199,43.648331],[-79.396212,43.648361],[-79.396381,43.648765],[-79.396638,43.649437],[-79.396884,43.650069],[-79.397239,43.650902],[-79.397644,43.651876],[-79.397792,43.65226],[-79.397803,43.652289],[-79.398049,43.652944],[-79.398445,43.653896],[-79.398644,43.654403],[-79.39883,43.654914],[-79.398926,43.655138],[-79.399231,43.655851],[-79.399315,43.656102],[-79.399591,43.656749],[-79.399841,43.657404],[-79.399853,43.657437],[-79.400048,43.657948],[-79.400217,43.658359],[-79.400254,43.658449],[-79.400469,43.658972],[-79.400404,43.659039],[-79.400365,43.659079],[-79.400294,43.659158],[-79.400186,43.65924],[-79.400087,43.65933],[-79.400016,43.659427],[-79.39996,43.659511],[-79.399923,43.659606],[-79.399909,43.659669],[-79.39992,43.659802],[-79.399953,43.659889],[-79.399974,43.659933],[-79.400034,43.660019],[-79.40012,43.660097],[-79.400246,43.660176],[-79.400368,43.660235],[-79.40054,43.66028],[-79.400701,43.660308],[-79.401029,43.660367],[-79.40109,43.660516],[-79.40141,43.661302],[-79.401747,43.662156],[-79.401772,43.662218],[-79.402109,43.663052],[-79.402414,43.663852],[-79.402744,43.664655],[-79.403109,43.66551],[-79.403548,43.666338],[-79.403548,43.666453],[-79.40351,43.666558],[-79.403431,43.666639],[-79.403343,43.666696],[-79.403006,43.666841],[-79.402808,43.666927],[-79.40276,43.667015],[-79.40276,43.667041],[-79.402758,43.667132],[-79.402758,43.667132],[-79.402758,43.667132],[-79.402818,43.667247],[-79.402863,43.6673],[-79.402946,43.66734],[-79.403034,43.667357],[-79.403126,43.667344]]}},{"type":"Feature","properties":{"route_id":"312","short_name":"312","long_name":"St Clair","color":"#0054A6"},"geometry":{"type":"LineString","coordinates":[[-79.392633,43.687762],[-79.391522,43.688015],[-79.391483,43.68803],[-79.391446,43.68805],[-79.391412,43.688075],[-79.391383,43.688105],[-79.391358,43.688139],[-79.391365,43.688215],[-79.39139,43.688286],[-79.391449,43.688466],[-79.39148,43.68864],[-79.392634,43.688398],[-79.393366,43.688232],[-79.393585,43.688183],[-79.39413,43.688076],[-79.397963,43.687308],[-79.399856,43.686929],[-79.400756,43.686755],[-79.401483,43.686634],[-79.403139,43.686304],[-79.40387,43.686137],[-79.404775,43.685963],[-79.406323,43.685656],[-79.407893,43.685341],[-79.409351,43.685018],[-79.411157,43.684618],[-79.4123,43.68439],[-79.412531,43.684339],[-79.413394,43.684163],[-79.413514,43.684138],[-79.41508,43.683807],[-79.415148,43.683793],[-79.415331,43.683754],[-79.415343,43.683752],[-79.415921,43.683633],[-79.416141,43.68359],[-79.417141,43.683393],[-79.418289,43.68316],[-79.419533,43.682921],[-79.420212,43.682766],[-79.421963,43.682412],[-79.423197,43.682192],[-79.423441,43.682135],[-79.424559,43.681941],[-79.425708,43.681702],[-79.426173,43.68162],[-79.42769,43.681293],[-79.428859,43.681042],[-79.429439,43.680922],[-79.430102,43.680785],[-79.430729,43.680644],[-79.431281,43.68052],[-79.432492,43.680269],[-79.433637,43.680016],[-79.434674,43.679808],[-79.435678,43.679585],[-79.435901,43.679541],[-79.436578,43.679391],[-79.437549,43.679172],[-79.438587,43.678938],[-79.43876,43.678916],[-79.439744,43.678685],[-79.440844,43.678429],[-79.441963,43.678178],[-79.443071,43.677954],[-79.445059,43.677497],[-79.445652,43.677365],[-79.446212,43.677258],[-79.447419,43.677],[-79.448143,43.676833],[-79.448625,43.676726],[-79.449415,43.676549],[-79.449816,43.676461],[-79.450591,43.676296],[-79.451133,43.676175],[-79.453495,43.675643],[-79.454763,43.675347],[-79.455314,43.675229],[-79.455956,43.675092],[-79.45599,43.675085],[-79.457115,43.674838],[-79.457637,43.674715],[-79.458708,43.674481],[-79.458958,43.674424],[-79.460008,43.674188],[-79.460515,43.674079],[-79.461218,43.673929],[-79.461527,43.673869],[-79.461903,43.673783],[-79.462507,43.673648],[-79.46304,43.673529],[-79.463609,43.673402],[-79.465665,43.672944],[-79.466588,43.672733],[-79.46706,43.672638],[-79.467623,43.672534],[-79.471124,43.671781],[-79.471253,43.672118],[-79.471289,43.672212],[-79.471326,43.672269],[-79.471404,43.672323],[-79.471509,43.672321],[-79.471585,43.672297],[-79.471649,43.672247],[-79.471856,43.671819]]}},{"type":"Feature","properties":{"route_id":"5","short_name":"5","long_name":"Line 5 Eglinton","color":"#FF8000"},"geometry":{"type":"LineString","coordinates":[[-79.264842,43.732969],[-79.26606,43.732674],[-79.266838,43.732478],[-79.267931,43.732201],[-79.269841,43.731755],[-79.27121,43.731434],[-79.271978,43.731264],[-79.272825,43.731086],[-79.273889,43.730845],[-79.27396,43.730828],[-79.274218,43.730765],[-79.275958,43.730372],[-79.277859,43.729962],[-79.279226,43.729694],[-79.280725,43.729364],[-79.281238,43.729257],[-79.282871,43.728909],[-79.284829,43.728471],[-79.286153,43.728177],[-79.287616,43.727846],[-79.289939,43.727338],[-79.291464,43.726996],[-79.294227,43.726376],[-79.294318,43.726355],[-79.297428,43.725668],[-79.297515,43.725651],[-79.298115,43.725507],[-79.299413,43.725203],[-79.299529,43.725178],[-79.300291,43.725016],[-79.300354,43.725003],[-79.300538,43.724967],[-79.301254,43.724837],[-79.301406,43.724819],[-79.301985,43.724739],[-79.302295,43.724713],[-79.302645,43.724723],[-79.302744,43.724705],[-79.302923,43.724691],[-79.303144,43.724683],[-79.303455,43.724688],[-79.303722,43.724693],[-79.303838,43.724684],[-79.304038,43.724689],[-79.304302,43.724703],[-79.304595,43.724739],[-79.304807,43.724758],[-79.304939,43.724762],[-79.305056,43.724776],[-79.305226,43.724794],[-79.305418,43.724808],[-79.30563,43.72484],[-79.305773,43.724872],[-79.305999,43.724904],[-79.306188,43.724932],[-79.306212,43.724936],[-79.306423,43.724967],[-79.306734,43.725022],[-79.306749,43.725027],[-79.307014,43.725058],[-79.307495,43.725122],[-79.30811,43.725213],[-79.308309,43.725245],[-79.308802,43.725323],[-79.308959,43.725349],[-79.309282,43.725391],[-79.309695,43.725455],[-79.309844,43.725478],[-79.309991,43.725497],[-79.311231,43.725664],[-79.312986,43.72595],[-79.313523,43.726023],[-79.313692,43.726037],[-79.313841,43.726064],[-79.314036,43.726105],[-79.314233,43.726128],[-79.314359,43.726146],[-79.314614,43.726178],[-79.314808,43.726192],[-79.315072,43.726219],[-79.315299,43.726233],[-79.315554,43.726261],[-79.315792,43.726266],[-79.316028,43.726275],[-79.316298,43.726289],[-79.316642,43.726276],[-79.316879,43.726258],[-79.317147,43.72625],[-79.317359,43.726232],[-79.317627,43.726228],[-79.317797,43.726215],[-79.318025,43.726188],[-79.318098,43.726179],[-79.318294,43.726134],[-79.318494,43.726094],[-79.319071,43.725996],[-79.319513,43.725911],[-79.319979,43.725786],[-79.320414,43.725674],[-79.321899,43.725289],[-79.321936,43.72528],[-79.322296,43.7252],[-79.32234,43.725191],[-79.322654,43.725111],[-79.323652,43.72483],[-79.325299,43.724399],[-79.326195,43.724166],[-79.326908,43.723978],[-79.328495,43.723567],[-79.33007,43.723164],[-79.330357,43.723092],[-79.332024,43.722588],[-79.333449,43.722158],[-79.334712,43.721777],[-79.335125,43.721652],[-79.335212,43.721625],[-79.335504,43.721535],[-79.336669,43.721178],[-79.338162,43.720719],[-79.338873,43.7205],[-79.339065,43.72044],[-79.339642,43.720276],[-79.341307,43.719716],[-79.343001,43.719219],[-79.343536,43.719047],[-79.345037,43.718562],[-79.347258,43.717879],[-79.347746,43.717729],[-79.348129,43.717631],[-79.348838,43.717419],[-79.349979,43.717098],[-79.35045,43.716923],[-79.351127,43.716686],[-79.351791,43.716475],[-79.352372,43.716307],[-79.352627,43.716233],[-79.353319,43.716027],[-79.354172,43.715807],[-79.354955,43.715624],[-79.355462,43.715523],[-79.355923,43.715431],[-79.356855,43.715261],[-79.357441,43.71515],[-79.357939,43.715051],[-79.358714,43.714859],[-79.359824,43.714603],[-79.362317,43.714089],[-79.364802,43.713565],[-79.367228,43.713078],[-79.369659,43.712573],[-79.37207,43.712095],[-79.373575,43.7118],[-79.3739,43.711732],[-79.376573,43.711161],[-79.377158,43.711036],[-79.378347,43.710772],[-79.379643,43.710526],[-79.380207,43.710418],[-79.38093,43.71027],[-79.381243,43.710212],[-79.382248,43.71002],[-79.383208,43.709814],[-79.383591,43.709737],[-79.384909,43.709455],[-79.386201,43.709191],[-79.387542,43.708927],[-79.387888,43.70886],[-79.388879,43.708653],[-79.390197,43.708407],[-79.3915,43.708134],[-79.392819,43.707861],[-79.394133,43.707601],[-79.395492,43.707328],[-79.396829,43.707059],[-79.397436,43.706929],[-79.397474,43.706921],[-79.398366,43.706731],[-79.400282,43.706351],[-79.401452,43.7061],[-79.401734,43.706032],[-79.402765,43.705822],[-79.40375,43.705602],[-79.404311,43.705483],[-79.404892,43.70536],[-79.405967,43.705139],[-79.406132,43.705105],[-79.406528,43.705024],[-79.407405,43.704836],[-79.408516,43.704598],[-79.409621,43.70436],[-79.410957,43.704082],[-79.411645,43.703939],[-79.412075,43.703845],[-79.413231,43.703612],[-79.413883,43.703473],[-79.414393,43.703356],[-79.414946,43.703244],[-79.415504,43.703118],[-79.415962,43.703029],[-79.417093,43.702782],[-79.417379,43.702719],[-79.418104,43.702571],[-79.418328,43.702522],[-79.419108,43.702351],[-79.419884,43.702185],[-79.42089,43.702],[-79.422092,43.701737],[-79.42314,43.701508],[-79.425561,43.700992],[-79.426686,43.700758],[-79.427612,43.700566],[-79.427765,43.700527],[-79.42883,43.700297],[-79.429902,43.700063],[-79.430906,43.699851],[-79.431039,43.699826],[-79.431895,43.699644],[-79.432784,43.699455],[-79.432868,43.699434],[-79.433826,43.699233],[-79.434803,43.699029],[-79.435033,43.69899],[-79.435575,43.698868],[-79.435727,43.698834],[-79.436017,43.698769],[-79.436307,43.698714],[-79.436461,43.698685],[-79.437189,43.698513],[-79.437293,43.698489],[-79.438324,43.698276],[-79.438416,43.698244],[-79.439054,43.698109],[-79.439249,43.698069],[-79.43939,43.69804],[-79.440255,43.697845],[-79.442793,43.697302],[-79.444375,43.696968],[-79.445209,43.696787],[-79.445313,43.696764],[-79.447332,43.696358],[-79.447685,43.696258],[-79.449336,43.695897],[-79.450278,43.695692],[-79.451201,43.695476],[-79.451572,43.695418],[-79.452329,43.695242],[-79.452798,43.695145],[-79.453497,43.694978],[-79.453956,43.694875],[-79.455098,43.694625],[-79.455894,43.694436],[-79.456234,43.694362],[-79.457187,43.694148],[-79.457384,43.694112],[-79.457782,43.694019],[-79.458528,43.693844],[-79.459678,43.693605],[-79.460826,43.693347],[-79.460984,43.693303],[-79.462214,43.69303],[-79.462814,43.692896],[-79.462902,43.692876],[-79.463053,43.692842],[-79.463263,43.692779],[-79.463348,43.692742],[-79.46343,43.692708],[-79.463473,43.692681],[-79.46364,43.692585],[-79.463998,43.692404],[-79.464222,43.692303],[-79.464456,43.692218],[-79.464574,43.692173],[-79.46462,43.692155],[-79.464863,43.692079],[-79.465073,43.692021],[-79.465379,43.69194],[-79.465752,43.691878],[-79.466649,43.691789],[-79.467485,43.69172],[-79.467696,43.691716],[-79.467864,43.691712],[-79.468371,43.69162],[-79.468783,43.691555],[-79.469435,43.691426],[-79.469721,43.691361],[-79.470401,43.691225],[-79.471515,43.690977],[-79.472743,43.690684],[-79.473911,43.690421],[-79.475062,43.690165],[-79.476099,43.689918],[-79.477181,43.689669],[-79.478898,43.689296],[-79.481038,43.688811],[-79.482878,43.688368],[-79.483726,43.688175],[-79.484594,43.687985],[-79.486493,43.68757],[-79.486594,43.687548],[-79.486772,43.687515],[-79.487075,43.687462],[-79.487825,43.687312]]}},{"type":"Feature","properties":{"route_id":"501","short_name":"501","long_name":"Queen","color":"#ED1C24"},"geometry":{"type":"LineString","coordinates":[[-79.478699,43.630967],[-79.478694,43.630877],[-79.47868,43.630832],[-79.478649,43.630808],[-79.478582,43.63077],[-79.47848,43.630752],[-79.478402,43.630781],[-79.478349,43.63083],[-79.4783,43.630913],[-79.478278,43.630986],[-79.478284,43.631037],[-79.478311,43.631076],[-79.478314,43.631081],[-79.478365,43.631128],[-79.478459,43.631202],[-79.478473,43.63124],[-79.478481,43.631289],[-79.478378,43.63151],[-79.478376,43.631518],[-79.478221,43.632003],[-79.477659,43.632181],[-79.477325,43.632289],[-79.4772,43.632325],[-79.477023,43.632383],[-79.476851,43.63246],[-79.476731,43.632527],[-79.476618,43.632604],[-79.476538,43.632667],[-79.476464,43.632734],[-79.476447,43.632748],[-79.476367,43.63282],[-79.476267,43.632909],[-79.476189,43.632972],[-79.475675,43.633377],[-79.47554,43.633483],[-79.475449,43.633562],[-79.475358,43.633643],[-79.475267,43.633724],[-79.475178,43.633809],[-79.475128,43.633854],[-79.475088,43.63389],[-79.475,43.633976],[-79.474823,43.634148],[-79.474738,43.634228],[-79.474652,43.634313],[-79.474567,43.634403],[-79.474493,43.634478],[-79.474482,43.634489],[-79.474398,43.634574],[-79.474315,43.63466],[-79.474232,43.634745],[-79.474126,43.634853],[-79.474028,43.634957],[-79.47393,43.63506],[-79.47383,43.635164],[-79.47373,43.635267],[-79.473629,43.635371],[-79.473525,43.635474],[-79.473493,43.635492],[-79.473321,43.635663],[-79.473202,43.635769],[-79.4731,43.63586],[-79.473002,43.635942],[-79.47292,43.636013],[-79.472901,43.636026],[-79.472841,43.636069],[-79.472733,43.636142],[-79.472618,43.636217],[-79.472528,43.636272],[-79.472373,43.636361],[-79.472317,43.636392],[-79.472262,43.636424],[-79.472205,43.636455],[-79.472148,43.636482],[-79.472091,43.636514],[-79.472033,43.636545],[-79.471975,43.636572],[-79.471916,43.636604],[-79.471857,43.636631],[-79.471798,43.636658],[-79.471738,43.636685],[-79.471677,43.636716],[-79.471616,43.636739],[-79.471555,43.636766],[-79.471493,43.636793],[-79.471432,43.636815],[-79.471369,43.636842],[-79.471306,43.636865],[-79.471243,43.636887],[-79.471179,43.63691],[-79.471115,43.636932],[-79.471043,43.636957],[-79.470986,43.636977],[-79.470922,43.636995],[-79.470856,43.637018],[-79.470791,43.637036],[-79.470725,43.637058],[-79.470659,43.637076],[-79.470592,43.63709],[-79.470533,43.637108],[-79.470526,43.637109],[-79.470449,43.637121],[-79.470364,43.637139],[-79.470279,43.637153],[-79.470194,43.637166],[-79.470108,43.63718],[-79.470023,43.637193],[-79.469937,43.637206],[-79.469914,43.63721],[-79.469851,43.63722],[-79.469766,43.637229],[-79.46968,43.637238],[-79.469593,43.637251],[-79.469507,43.63726],[-79.469419,43.637265],[-79.469295,43.637283],[-79.469172,43.637296],[-79.469048,43.637314],[-79.468979,43.637324],[-79.468924,43.637332],[-79.468801,43.637346],[-79.468678,43.637368],[-79.468555,43.637386],[-79.468432,43.637404],[-79.468402,43.63741],[-79.468309,43.637427],[-79.468187,43.637445],[-79.468064,43.637467],[-79.467942,43.63749],[-79.46782,43.637508],[-79.467698,43.63753],[-79.467577,43.637553],[-79.467455,43.637579],[-79.467282,43.637605],[-79.467168,43.637624],[-79.467066,43.637642],[-79.466964,43.637665],[-79.466862,43.637683],[-79.466761,43.637705],[-79.466659,43.637728],[-79.466559,43.637746],[-79.466452,43.63777],[-79.466358,43.637795],[-79.466257,43.637818],[-79.466157,43.63784],[-79.466058,43.637867],[-79.465958,43.63789],[-79.465859,43.637917],[-79.465761,43.637944],[-79.465662,43.637971],[-79.465564,43.637998],[-79.465466,43.638025],[-79.465368,43.638056],[-79.465271,43.638083],[-79.465174,43.638114],[-79.465074,43.638146],[-79.464968,43.638186],[-79.464862,43.638222],[-79.464755,43.638258],[-79.464648,43.638294],[-79.464541,43.63833],[-79.464433,43.638366],[-79.464326,43.638402],[-79.464217,43.638434],[-79.464109,43.63847],[-79.464,43.638506],[-79.463891,43.638537],[-79.463781,43.638569],[-79.463672,43.6386],[-79.463562,43.638632],[-79.463451,43.638663],[-79.463341,43.63869],[-79.46323,43.638721],[-79.463119,43.638753],[-79.463007,43.63878],[-79.462896,43.638807],[-79.462784,43.638834],[-79.462671,43.638865],[-79.462556,43.638888],[-79.462478,43.638915],[-79.462398,43.638942],[-79.462319,43.638969],[-79.462238,43.638991],[-79.462158,43.639018],[-79.462078,43.639041],[-79.461997,43.639063],[-79.461915,43.639086],[-79.461834,43.639104],[-79.461752,43.639131],[-79.46167,43.639149],[-79.461588,43.639167],[-79.461505,43.639189],[-79.461423,43.639207],[-79.46134,43.639225],[-79.461257,43.639243],[-79.461173,43.639265],[-79.461089,43.639279],[-79.461005,43.639297],[-79.460921,43.63931],[-79.460837,43.639328],[-79.460753,43.639342],[-79.460668,43.639355],[-79.460584,43.639369],[-79.460499,43.639382],[-79.460413,43.639396],[-79.460328,43.639409],[-79.460243,43.639418],[-79.460157,43.639432],[-79.460072,43.639441],[-79.459971,43.639454],[-79.459865,43.639472],[-79.45976,43.63949],[-79.459654,43.639503],[-79.459547,43.639517],[-79.459387,43.639535],[-79.459335,43.639544],[-79.459228,43.639557],[-79.459121,43.639566],[-79.459014,43.63958],[-79.458907,43.639593],[-79.458801,43.639598],[-79.458693,43.639607],[-79.458586,43.63962],[-79.458478,43.639629],[-79.458371,43.639634],[-79.458263,43.639643],[-79.458156,43.639647],[-79.458048,43.639656],[-79.45794,43.63966],[-79.457833,43.639665],[-79.457725,43.639669],[-79.45762,43.639674],[-79.457412,43.639674],[-79.457204,43.639674],[-79.456995,43.639678],[-79.456787,43.639678],[-79.456579,43.639682],[-79.456371,43.639687],[-79.456163,43.639687],[-79.455955,43.639696],[-79.455747,43.6397],[-79.455647,43.639696],[-79.455547,43.639691],[-79.455447,43.639686],[-79.455346,43.639686],[-79.455247,43.639682],[-79.455146,43.639677],[-79.455046,43.639677],[-79.454946,43.639677],[-79.454846,43.639677],[-79.454745,43.639677],[-79.454645,43.639682],[-79.454545,43.639682],[-79.454445,43.639686],[-79.454345,43.639686],[-79.454245,43.639695],[-79.454145,43.639695],[-79.454055,43.639703],[-79.453751,43.639731],[-79.45333,43.639707],[-79.453076,43.639708],[-79.452826,43.63971],[-79.452586,43.639695],[-79.45229,43.639649],[-79.452128,43.63961],[-79.45202,43.639574],[-79.451969,43.639557],[-79.451524,43.63941],[-79.45131,43.639339],[-79.449537,43.639003],[-79.449329,43.638964],[-79.448422,43.638778],[-79.447874,43.638674],[-79.447573,43.638618],[-79.447408,43.638597],[-79.447266,43.638591],[-79.446913,43.63859],[-79.446714,43.638614],[-79.446219,43.638715],[-79.443825,43.639181],[-79.442496,43.639437],[-79.442221,43.63949],[-79.441181,43.639688],[-79.440964,43.639739],[-79.439863,43.639951],[-79.439114,43.640103],[-79.437922,43.640332],[-79.437277,43.640451],[-79.436668,43.640583],[-79.435973,43.64072],[-79.435413,43.640842],[-79.434516,43.641025],[-79.434166,43.641094],[-79.433152,43.6413],[-79.432369,43.641474],[-79.431589,43.641625],[-79.430121,43.641925],[-79.429724,43.641999],[-79.428644,43.642208],[-79.42821,43.642311],[-79.427159,43.64251],[-79.425998,43.642765],[-79.424798,43.643016],[-79.424395,43.643092],[-79.424375,43.643096],[-79.424274,43.643116],[-79.423614,43.643246],[-79.42241,43.643491],[-79.421802,43.643617],[-79.421197,43.643726],[-79.420008,43.643981],[-79.419419,43.644096],[-79.418861,43.644204],[-79.417481,43.64448],[-79.416303,43.644725],[-79.415075,43.644973],[-79.413976,43.645205],[-79.413197,43.645366],[-79.411488,43.6457],[-79.411259,43.645748],[-79.41079,43.645846],[-79.409946,43.645996],[-79.409576,43.64608],[-79.408582,43.646289],[-79.40771,43.646469],[-79.407321,43.646542],[-79.406575,43.646682],[-79.405205,43.646968],[-79.40401,43.647188],[-79.402001,43.647613],[-79.401413,43.647709],[-79.400937,43.647813],[-79.400597,43.647887],[-79.400146,43.647975],[-79.399676,43.648067],[-79.398418,43.648325],[-79.398178,43.648373],[-79.397414,43.648538],[-79.396381,43.648765],[-79.393702,43.649351],[-79.393448,43.649406],[-79.392155,43.649681],[-79.391137,43.649897],[-79.390706,43.649988],[-79.390504,43.65003],[-79.39029,43.650073],[-79.390255,43.650081],[-79.389755,43.650195],[-79.389476,43.650232],[-79.388643,43.650421],[-79.387516,43.650672],[-79.386628,43.650852],[-79.384964,43.651216],[-79.38465,43.65044],[-79.38411,43.649188],[-79.38213,43.649614],[-79.38081,43.649892],[-79.379187,43.650257],[-79.379073,43.650281],[-79.37847,43.650407],[-79.377936,43.650532],[-79.377245,43.650669],[-79.376472,43.650851],[-79.375968,43.650962],[-79.375915,43.650973],[-79.374946,43.651185],[-79.375203,43.651806],[-79.375476,43.652466],[-79.375617,43.652801],[-79.375773,43.653168],[-79.375162,43.653308],[-79.374289,43.653501],[-79.373254,43.653729],[-79.372078,43.653957],[-79.370093,43.654399],[-79.369965,43.654424],[-79.369459,43.654525],[-79.369008,43.65462],[-79.368988,43.654624],[-79.367939,43.654854],[-79.367895,43.654864],[-79.367203,43.655015],[-79.365756,43.65534],[-79.364462,43.655615],[-79.363442,43.65583],[-79.363224,43.65588],[-79.362264,43.656094],[-79.361465,43.65627],[-79.361014,43.656369],[-79.360513,43.656479],[-79.360189,43.656558],[-79.359584,43.656704],[-79.358924,43.656833],[-79.35776,43.657097],[-79.35653,43.657375],[-79.355521,43.657608],[-79.355469,43.657621],[-79.354962,43.657737],[-79.354874,43.657757],[-79.354782,43.657778],[-79.354659,43.657802],[-79.354554,43.657823],[-79.354546,43.657825],[-79.354324,43.657871],[-79.354174,43.657903],[-79.353921,43.657957],[-79.353755,43.657992],[-79.353623,43.658022],[-79.353347,43.65809],[-79.352239,43.658332],[-79.351553,43.658493],[-79.350929,43.658632],[-79.349852,43.658878],[-79.348652,43.659151],[-79.348499,43.659191],[-79.347447,43.659419],[-79.346743,43.65958],[-79.346411,43.659663],[-79.346115,43.659737],[-79.345803,43.659794],[-79.345674,43.659818],[-79.34547,43.659862],[-79.345111,43.659942],[-79.344458,43.660086],[-79.343591,43.660287],[-79.342506,43.660529],[-79.341268,43.660793],[-79.340799,43.660887],[-79.340092,43.661061],[-79.338913,43.661338],[-79.33882,43.661356],[-79.337704,43.661598],[-79.336315,43.661911],[-79.335895,43.662009],[-79.335334,43.662117],[-79.33489,43.662233],[-79.334315,43.662336],[-79.334071,43.662416],[-79.333456,43.662542],[-79.333304,43.662573],[-79.332814,43.662671],[-79.332263,43.662805],[-79.331424,43.662997],[-79.330224,43.663239],[-79.328997,43.663529],[-79.327911,43.663799],[-79.327879,43.663807],[-79.327349,43.66391],[-79.326216,43.664173],[-79.325986,43.664223],[-79.325308,43.664397],[-79.323978,43.664692],[-79.322388,43.665041],[-79.321291,43.665291],[-79.320708,43.66542],[-79.320592,43.665446],[-79.32002,43.665573],[-79.31975,43.665622],[-79.319119,43.665778],[-79.318501,43.665912],[-79.317659,43.666091],[-79.316602,43.66636],[-79.316246,43.666437],[-79.31485,43.666739],[-79.313556,43.66703],[-79.312593,43.667244],[-79.312126,43.667345],[-79.311552,43.667469],[-79.31144,43.667493],[-79.311264,43.667531],[-79.311257,43.667532],[-79.311161,43.667553],[-79.310335,43.667731],[-79.309195,43.66799],[-79.308047,43.668245],[-79.306917,43.668499],[-79.305775,43.668757],[-79.304644,43.669001],[-79.303877,43.669175],[-79.303518,43.669262],[-79.302235,43.66956],[-79.301905,43.669619],[-79.300866,43.669845],[-79.299825,43.670072],[-79.298905,43.670268],[-79.298016,43.670462],[-79.296872,43.670711],[-79.296594,43.670754],[-79.295754,43.670936],[-79.295477,43.670992],[-79.294469,43.67121],[-79.293527,43.6714],[-79.292738,43.671583],[-79.292572,43.671611],[-79.291918,43.671747],[-79.291871,43.671756],[-79.29101,43.671926],[-79.28993,43.672146],[-79.288763,43.672387],[-79.287581,43.672634],[-79.286328,43.672893],[-79.285235,43.673117],[-79.284122,43.673361],[-79.283496,43.673478],[-79.28308,43.67358],[-79.28239,43.673722],[-79.28186,43.673824],[-79.281829,43.67383],[-79.28174,43.673773],[-79.281593,43.673736],[-79.281485,43.673709],[-79.281389,43.673688],[-79.281334,43.673689]]}},{"type":"Feature","properties":{"route_id":"503","short_name":"503","long_name":"Kingston Rd","color":"#ED1C24"},"geometry":{"type":"LineString","coordinates":[[-79.383578,43.647924],[-79.383834,43.648562],[-79.38411,43.649188],[-79.38465,43.65044],[-79.385111,43.650341],[-79.386291,43.650086],[-79.386268,43.650033],[-79.38611,43.649734],[-79.385809,43.649233],[-79.385559,43.648868],[-79.385549,43.648853],[-79.385351,43.648538],[-79.385189,43.648281],[-79.385181,43.648268],[-79.384806,43.647662],[-79.383578,43.647924],[-79.383522,43.647936],[-79.382056,43.648261],[-79.380278,43.64865],[-79.380173,43.648677],[-79.378821,43.648961],[-79.377918,43.649148],[-79.376731,43.649405],[-79.375961,43.649585],[-79.375719,43.64964],[-79.375586,43.649673],[-79.375028,43.649782],[-79.374412,43.649921],[-79.373816,43.650051],[-79.373443,43.650132],[-79.37331,43.650161],[-79.372887,43.650253],[-79.372804,43.650271],[-79.372566,43.650323],[-79.372288,43.650383],[-79.371913,43.650463],[-79.370693,43.650732],[-79.369474,43.651001],[-79.368261,43.651277],[-79.36705,43.651547],[-79.366087,43.651764],[-79.364412,43.652123],[-79.364245,43.652165],[-79.364158,43.652212],[-79.363245,43.652729],[-79.36241,43.653218],[-79.361874,43.653497],[-79.361569,43.653683],[-79.36122,43.653895],[-79.361139,43.653944],[-79.36099,43.654034],[-79.360848,43.654118],[-79.36074,43.654182],[-79.360349,43.65441],[-79.359711,43.654793],[-79.359668,43.654822],[-79.359651,43.654833],[-79.359449,43.654967],[-79.359215,43.655098],[-79.358941,43.655262],[-79.358415,43.655582],[-79.358041,43.655779],[-79.358009,43.655796],[-79.357654,43.656007],[-79.357549,43.65607],[-79.357411,43.656153],[-79.356979,43.656382],[-79.356158,43.656868],[-79.355285,43.657514],[-79.355247,43.657552],[-79.35517,43.657613],[-79.354962,43.657737],[-79.354874,43.657757],[-79.354782,43.657778],[-79.354659,43.657802],[-79.354554,43.657823],[-79.354546,43.657825],[-79.354324,43.657871],[-79.354174,43.657903],[-79.353921,43.657957],[-79.353755,43.657992],[-79.353623,43.658022],[-79.353347,43.65809],[-79.352239,43.658332],[-79.351553,43.658493],[-79.350929,43.658632],[-79.349852,43.658878],[-79.348652,43.659151],[-79.348499,43.659191],[-79.347447,43.659419],[-79.346743,43.65958],[-79.346411,43.659663],[-79.346115,43.659737],[-79.345803,43.659794],[-79.345674,43.659818],[-79.34547,43.659862],[-79.345111,43.659942],[-79.344458,43.660086],[-79.343591,43.660287],[-79.342506,43.660529],[-79.341268,43.660793],[-79.340799,43.660887],[-79.340092,43.661061],[-79.338913,43.661338],[-79.33882,43.661356],[-79.337704,43.661598],[-79.336315,43.661911],[-79.335895,43.662009],[-79.335334,43.662117],[-79.33489,43.662233],[-79.334315,43.662336],[-79.334071,43.662416],[-79.333456,43.662542],[-79.333304,43.662573],[-79.332814,43.662671],[-79.332263,43.662805],[-79.331424,43.662997],[-79.330224,43.663239],[-79.328997,43.663529],[-79.327911,43.663799],[-79.327879,43.663807],[-79.327349,43.66391],[-79.326216,43.664173],[-79.325986,43.664223],[-79.325308,43.664397],[-79.323978,43.664692],[-79.322388,43.665041],[-79.321291,43.665291],[-79.320708,43.66542],[-79.320592,43.665446],[-79.32002,43.665573],[-79.31975,43.665622],[-79.319119,43.665778],[-79.318501,43.665912],[-79.317659,43.666091],[-79.316602,43.66636],[-79.316246,43.666437],[-79.31485,43.666739],[-79.313556,43.66703],[-79.312593,43.667244],[-79.312563,43.66731],[-79.312546,43.667348],[-79.312476,43.667505],[-79.31221,43.668031],[-79.312142,43.668166],[-79.31213,43.668191],[-79.311877,43.668692],[-79.311643,43.66911],[-79.311313,43.669735],[-79.311182,43.669974],[-79.310986,43.670345],[-79.310829,43.670644],[-79.310805,43.670688],[-79.310372,43.671503],[-79.310202,43.671808],[-79.310128,43.671903],[-79.31006,43.671984],[-79.310029,43.672019],[-79.309982,43.672073],[-79.309872,43.672199],[-79.309086,43.672869],[-79.307926,43.673928],[-79.307282,43.674474],[-79.306554,43.675136],[-79.305903,43.6757],[-79.305608,43.675957],[-79.305175,43.676314],[-79.304886,43.676525],[-79.304721,43.676606],[-79.304515,43.676735],[-79.304363,43.676806],[-79.304187,43.67689],[-79.304088,43.676941],[-79.303891,43.67702],[-79.303372,43.677231],[-79.302486,43.677593],[-79.301181,43.678126],[-79.301002,43.678211],[-79.300723,43.678312],[-79.300475,43.678406],[-79.299916,43.678512],[-79.298929,43.678693],[-79.298909,43.678697],[-79.298846,43.67871],[-79.298023,43.678885],[-79.296311,43.679297],[-79.295871,43.679384],[-79.294522,43.679717],[-79.293251,43.680005],[-79.293077,43.680043],[-79.293044,43.680051],[-79.292828,43.680083],[-79.292592,43.680109],[-79.29186,43.680147],[-79.291257,43.680199],[-79.290694,43.68025],[-79.28995,43.680284],[-79.289203,43.680364],[-79.288409,43.680395],[-79.288187,43.680423],[-79.287087,43.680539],[-79.286088,43.680627],[-79.285974,43.680634],[-79.285068,43.68072],[-79.284963,43.680726],[-79.28406,43.680811],[-79.284204,43.681164],[-79.284215,43.681191],[-79.284379,43.681596],[-79.285361,43.681402]]}},{"type":"Feature","properties":{"route_id":"504","short_name":"504","long_name":"King","color":"#ED1C24"},"geometry":{"type":"LineString","coordinates":[[-79.453581,43.656711],[-79.453727,43.656725],[-79.453836,43.6568],[-79.453921,43.657031],[-79.453912,43.657036],[-79.453207,43.657182],[-79.452713,43.657286],[-79.452663,43.657101],[-79.452605,43.656884],[-79.452453,43.656321],[-79.452188,43.655192],[-79.451846,43.653882],[-79.451778,43.653557],[-79.451443,43.652533],[-79.451388,43.652349],[-79.451303,43.652119],[-79.451211,43.65188],[-79.451069,43.651515],[-79.450659,43.65045],[-79.45035,43.649662],[-79.45007,43.648947],[-79.450027,43.648832],[-79.449726,43.648054],[-79.449393,43.647204],[-79.449059,43.646337],[-79.448712,43.645446],[-79.448371,43.644552],[-79.448041,43.643707],[-79.447704,43.64283],[-79.447353,43.641932],[-79.447016,43.641076],[-79.446679,43.640199],[-79.446413,43.639515],[-79.446361,43.639385],[-79.446352,43.639363],[-79.446286,43.6392],[-79.44622,43.639036],[-79.446189,43.638931],[-79.446186,43.638868],[-79.44619,43.638806],[-79.446219,43.638715],[-79.44597,43.63856],[-79.445494,43.638331],[-79.445184,43.638206],[-79.444623,43.638],[-79.444201,43.637858],[-79.443987,43.637785],[-79.443657,43.637663],[-79.442774,43.637277],[-79.442562,43.637186],[-79.442274,43.637045],[-79.442246,43.637032],[-79.442119,43.636957],[-79.441905,43.63681],[-79.44156,43.636637],[-79.441462,43.636594],[-79.441345,43.636543],[-79.441242,43.636515],[-79.440783,43.636458],[-79.439968,43.636419],[-79.439897,43.636412],[-79.439827,43.636421],[-79.439746,43.63643],[-79.438596,43.636662],[-79.437396,43.636891],[-79.437274,43.636926],[-79.436037,43.637176],[-79.434725,43.63746],[-79.433283,43.637743],[-79.431871,43.638024],[-79.430916,43.63821],[-79.430356,43.638345],[-79.429135,43.638582],[-79.428858,43.638653],[-79.427374,43.63896],[-79.42634,43.63917],[-79.42605,43.639228],[-79.42484,43.639466],[-79.423553,43.639723],[-79.422281,43.639977],[-79.42129,43.640179],[-79.42038,43.640368],[-79.420159,43.640414],[-79.419553,43.640534],[-79.417244,43.640991],[-79.41664,43.641112],[-79.416459,43.641148],[-79.415801,43.64128],[-79.415018,43.641437],[-79.413797,43.64168],[-79.412709,43.641911],[-79.41197,43.642042],[-79.411308,43.642175],[-79.410724,43.642292],[-79.410143,43.642412],[-79.408759,43.642704],[-79.407718,43.642909],[-79.405285,43.643402],[-79.402705,43.643926],[-79.400838,43.644302],[-79.400827,43.644305],[-79.400097,43.644453],[-79.399203,43.644637],[-79.398509,43.644779],[-79.397647,43.644954],[-79.395046,43.64547],[-79.39364,43.645762],[-79.392328,43.646054],[-79.391093,43.646316],[-79.389773,43.646603],[-79.388151,43.646965],[-79.38611,43.647395],[-79.385461,43.647521],[-79.384806,43.647662],[-79.383578,43.647924],[-79.383522,43.647936],[-79.382056,43.648261],[-79.380278,43.64865],[-79.380173,43.648677],[-79.378821,43.648961],[-79.377918,43.649148],[-79.376731,43.649405],[-79.375961,43.649585],[-79.375719,43.64964],[-79.375586,43.649673],[-79.375028,43.649782],[-79.374412,43.649921],[-79.373816,43.650051],[-79.372566,43.650323],[-79.371913,43.650463],[-79.370693,43.650732],[-79.369474,43.651001],[-79.368261,43.651277],[-79.36705,43.651547],[-79.366087,43.651764],[-79.364412,43.652123],[-79.364245,43.652165],[-79.364158,43.652212],[-79.363245,43.652729],[-79.36241,43.653218],[-79.361874,43.653497],[-79.361569,43.653683],[-79.36122,43.653895],[-79.361139,43.653944],[-79.36099,43.654034],[-79.360848,43.654118],[-79.36074,43.654182],[-79.360349,43.65441],[-79.359711,43.654793],[-79.359668,43.654822],[-79.359651,43.654833],[-79.359449,43.654967],[-79.359215,43.655098],[-79.358941,43.655262],[-79.358415,43.655582],[-79.358395,43.655499],[-79.358378,43.655387],[-79.35838,43.655276],[-79.358388,43.655169],[-79.358404,43.655006],[-79.358449,43.654874],[-79.35852,43.6547],[-79.358525,43.654688],[-79.358541,43.654649],[-79.358595,43.654518],[-79.358654,43.654383],[-79.358661,43.654283],[-79.358642,43.654192],[-79.358617,43.654113],[-79.358533,43.653906],[-79.357991,43.652658],[-79.357756,43.652138],[-79.357664,43.65203],[-79.357556,43.651934],[-79.357439,43.651829],[-79.357388,43.651754],[-79.357316,43.651629],[-79.35702,43.650906],[-79.356906,43.650609],[-79.356858,43.650501],[-79.356822,43.650453],[-79.356786,43.650425],[-79.356743,43.650407],[-79.35668,43.650392],[-79.35661,43.650393],[-79.356528,43.650411],[-79.356474,43.650454],[-79.35644,43.650496],[-79.356424,43.650542],[-79.356424,43.650575],[-79.356436,43.650613],[-79.356457,43.650642],[-79.356479,43.650658],[-79.356515,43.650684],[-79.356634,43.650736]]}},{"type":"Feature","properties":{"route_id":"505","short_name":"505","long_name":"Dundas","color":"#ED1C24"},"geometry":{"type":"LineString","coordinates":[[-79.358352,43.676945],[-79.35802,43.677113],[-79.357956,43.677186],[-79.357942,43.677307],[-79.357953,43.677426],[-79.358159,43.677444],[-79.358451,43.677476],[-79.358638,43.677514],[-79.358704,43.677256],[-79.358829,43.676772],[-79.358924,43.676395],[-79.358905,43.6763],[-79.35886,43.676195],[-79.358072,43.675395],[-79.357567,43.67479],[-79.357067,43.674258],[-79.356215,43.673368],[-79.356104,43.67325],[-79.355363,43.672493],[-79.354918,43.672001],[-79.354516,43.671258],[-79.354371,43.670993],[-79.354242,43.670844],[-79.354084,43.670664],[-79.35392,43.670484],[-79.353202,43.669699],[-79.353104,43.669587],[-79.353058,43.669515],[-79.353021,43.669443],[-79.352992,43.669353],[-79.352982,43.669277],[-79.352984,43.669069],[-79.353016,43.668795],[-79.35308,43.668466],[-79.353155,43.668246],[-79.35337,43.667752],[-79.353408,43.667608],[-79.353419,43.667544],[-79.353419,43.667541],[-79.353416,43.667473],[-79.353412,43.667409],[-79.353224,43.666934],[-79.352897,43.666153],[-79.35261,43.665479],[-79.352229,43.664568],[-79.352025,43.664082],[-79.351794,43.663529],[-79.351594,43.663051],[-79.351348,43.662461],[-79.351787,43.66235],[-79.352232,43.662236],[-79.353071,43.66207],[-79.353605,43.66196],[-79.353879,43.661909],[-79.35449,43.661853],[-79.354899,43.661794],[-79.355068,43.661774],[-79.355142,43.661763],[-79.355299,43.661746],[-79.355437,43.661727],[-79.355648,43.661699],[-79.355665,43.661698],[-79.355875,43.661673],[-79.356076,43.66165],[-79.356373,43.661616],[-79.356377,43.661616],[-79.356622,43.661552],[-79.358148,43.661191],[-79.359498,43.660879],[-79.359633,43.660848],[-79.360011,43.660758],[-79.360146,43.660733],[-79.360429,43.660677],[-79.360473,43.660665],[-79.361007,43.660524],[-79.36177,43.660353],[-79.362988,43.66008],[-79.363744,43.659918],[-79.363979,43.659863],[-79.364487,43.659755],[-79.364518,43.65975],[-79.365156,43.659615],[-79.365228,43.659599],[-79.366003,43.659433],[-79.366569,43.659306],[-79.366656,43.659286],[-79.367339,43.659115],[-79.36793,43.658983],[-79.36797,43.658977],[-79.368555,43.658864],[-79.369499,43.658651],[-79.370204,43.658482],[-79.371019,43.658287],[-79.371339,43.65829],[-79.371419,43.658295],[-79.371538,43.65829],[-79.371662,43.658281],[-79.371778,43.658276],[-79.371921,43.658267],[-79.37205,43.65825],[-79.37213,43.658245],[-79.372236,43.658214],[-79.372292,43.658194],[-79.372377,43.658163],[-79.372549,43.658084],[-79.372629,43.658036],[-79.372742,43.657967],[-79.372855,43.657882],[-79.372944,43.65778],[-79.373007,43.6577],[-79.373095,43.657607],[-79.373198,43.657505],[-79.373304,43.657395],[-79.373396,43.657321],[-79.373446,43.657296],[-79.374554,43.65706],[-79.375652,43.656813],[-79.376548,43.656641],[-79.377134,43.656494],[-79.377702,43.656379],[-79.378303,43.656255],[-79.378865,43.65614],[-79.379037,43.656143],[-79.379133,43.656171],[-79.379358,43.656235],[-79.379563,43.656284],[-79.380173,43.656436],[-79.380266,43.656452],[-79.380302,43.656453],[-79.380308,43.656454],[-79.380355,43.656451],[-79.380913,43.656322],[-79.383753,43.655709],[-79.385212,43.655419],[-79.386047,43.655234],[-79.387148,43.655017],[-79.388301,43.654783],[-79.388418,43.654795],[-79.388523,43.654809],[-79.388644,43.654806],[-79.388717,43.654795],[-79.389212,43.654677],[-79.389991,43.654505],[-79.390201,43.654478],[-79.39028,43.654483],[-79.390366,43.654496],[-79.390445,43.654496],[-79.390533,43.65449],[-79.390648,43.65447],[-79.391448,43.654326],[-79.393847,43.653816],[-79.394531,43.653674],[-79.394631,43.653652],[-79.395544,43.653464],[-79.396152,43.65334],[-79.397019,43.653162],[-79.397258,43.653109],[-79.397425,43.653072],[-79.398037,43.652937],[-79.399212,43.652672],[-79.399857,43.652543],[-79.400327,43.652447],[-79.401134,43.652267],[-79.401645,43.652155],[-79.402253,43.652022],[-79.402833,43.651919],[-79.403735,43.651733],[-79.403839,43.651734],[-79.403902,43.651738],[-79.403988,43.651766],[-79.404397,43.65195],[-79.404833,43.652151],[-79.405235,43.652321],[-79.405349,43.652357],[-79.405462,43.65237],[-79.405585,43.652369],[-79.406009,43.652304],[-79.406604,43.652185],[-79.407263,43.652051],[-79.408477,43.651786],[-79.409096,43.651665],[-79.40971,43.651547],[-79.410311,43.651423],[-79.410907,43.651301],[-79.411591,43.65117],[-79.412186,43.651046],[-79.412801,43.650921],[-79.413406,43.650791],[-79.413487,43.650774],[-79.413923,43.650697],[-79.413971,43.650687],[-79.414935,43.650491],[-79.415973,43.65029],[-79.417056,43.650061],[-79.418274,43.649818],[-79.418829,43.649706],[-79.418891,43.649693],[-79.419526,43.649565],[-79.420203,43.649435],[-79.420237,43.649428],[-79.420769,43.649326],[-79.42277,43.649379],[-79.423248,43.649394],[-79.423793,43.649414],[-79.423907,43.649419],[-79.42399,43.64942],[-79.424739,43.64943],[-79.425811,43.649475],[-79.426783,43.649493],[-79.428111,43.649551],[-79.429816,43.649577],[-79.4309,43.649617],[-79.430998,43.64962],[-79.431442,43.649644],[-79.432475,43.649687],[-79.433132,43.649731],[-79.433678,43.649765],[-79.435591,43.649883],[-79.436948,43.649973],[-79.437,43.649977],[-79.438309,43.650081],[-79.439719,43.650161],[-79.441008,43.650274],[-79.441434,43.650314],[-79.442046,43.650445],[-79.442137,43.650467],[-79.443011,43.65068],[-79.444033,43.650905],[-79.445311,43.651195],[-79.446797,43.651583],[-79.447595,43.651921],[-79.448075,43.652109],[-79.449196,43.652625],[-79.450103,43.653044],[-79.451574,43.653708],[-79.451834,43.653876],[-79.452177,43.655186],[-79.452442,43.656314],[-79.452625,43.656998],[-79.4527,43.656901],[-79.452777,43.656857],[-79.453142,43.656801],[-79.453673,43.656751]]}},{"type":"Feature","properties":{"route_id":"506","short_name":"506","long_name":"Carlton","color":"#ED1C24"},"geometry":{"type":"LineString","coordinates":[[-79.458127,43.647814],[-79.45807,43.647783],[-79.45797,43.647771],[-79.457902,43.647778],[-79.457842,43.647799],[-79.457791,43.647831],[-79.457766,43.64787],[-79.457767,43.647918],[-79.457769,43.647959],[-79.457864,43.648361],[-79.457878,43.648442],[-79.457804,43.648628],[-79.457628,43.64886],[-79.457507,43.649025],[-79.456999,43.64971],[-79.4566,43.649929],[-79.456066,43.650177],[-79.455027,43.650696],[-79.454882,43.650746],[-79.453913,43.650948],[-79.453409,43.651053],[-79.451069,43.651515],[-79.450482,43.651634],[-79.448086,43.652115],[-79.447606,43.651927],[-79.446809,43.651589],[-79.445323,43.651201],[-79.444045,43.650912],[-79.443023,43.650686],[-79.442149,43.650474],[-79.442058,43.650451],[-79.441446,43.65032],[-79.44102,43.650281],[-79.440342,43.650767],[-79.439999,43.651012],[-79.439844,43.65108],[-79.439766,43.651107],[-79.438793,43.651332],[-79.438265,43.651438],[-79.43759,43.651574],[-79.436881,43.651712],[-79.4368,43.651727],[-79.436357,43.651813],[-79.434584,43.652147],[-79.433119,43.652452],[-79.432562,43.652569],[-79.43168,43.652743],[-79.43108,43.652848],[-79.430813,43.652898],[-79.43072,43.652913],[-79.430588,43.652926],[-79.430483,43.652926],[-79.430382,43.652921],[-79.430305,43.652912],[-79.430155,43.652879],[-79.430033,43.652862],[-79.429876,43.652868],[-79.429677,43.652915],[-79.429451,43.652964],[-79.428186,43.653227],[-79.427241,43.653425],[-79.426404,43.6536],[-79.425186,43.653868],[-79.423959,43.654122],[-79.422705,43.6544],[-79.421488,43.654656],[-79.420273,43.65491],[-79.419714,43.655039],[-79.419032,43.655157],[-79.418873,43.655186],[-79.418767,43.655201],[-79.418587,43.655234],[-79.418329,43.655245],[-79.418249,43.655252],[-79.418184,43.655251],[-79.418091,43.655258],[-79.418022,43.655254],[-79.417906,43.655245],[-79.417079,43.65517],[-79.416733,43.655115],[-79.415609,43.654951],[-79.415555,43.654939],[-79.415435,43.654927],[-79.415294,43.654937],[-79.415179,43.65495],[-79.415057,43.654971],[-79.413878,43.655213],[-79.412616,43.655462],[-79.411408,43.655714],[-79.410162,43.655971],[-79.408959,43.656229],[-79.408354,43.656353],[-79.407722,43.656481],[-79.406519,43.656721],[-79.405832,43.656858],[-79.405228,43.656979],[-79.40453,43.657117],[-79.404076,43.657208],[-79.403811,43.657261],[-79.4032,43.657382],[-79.402826,43.657458],[-79.401845,43.657652],[-79.401033,43.657816],[-79.40081,43.657858],[-79.400279,43.657966],[-79.400181,43.657968],[-79.400048,43.657948],[-79.399835,43.657969],[-79.399757,43.657968],[-79.399629,43.657984],[-79.399052,43.658096],[-79.398198,43.65826],[-79.397036,43.658484],[-79.396212,43.65864],[-79.395902,43.6587],[-79.395294,43.658826],[-79.394681,43.658954],[-79.39461,43.658968],[-79.394087,43.65907],[-79.393484,43.659199],[-79.39259,43.659396],[-79.390494,43.659858],[-79.387425,43.660514],[-79.386682,43.660661],[-79.385854,43.660815],[-79.385195,43.659225],[-79.384893,43.65851],[-79.384712,43.658074],[-79.384415,43.657307],[-79.38406,43.656435],[-79.383766,43.655715],[-79.380926,43.656328],[-79.380368,43.656458],[-79.380321,43.65646],[-79.380314,43.656459],[-79.380279,43.656458],[-79.380187,43.656443],[-79.379576,43.656291],[-79.379372,43.656241],[-79.379147,43.656177],[-79.37905,43.656149],[-79.378878,43.656146],[-79.378317,43.656262],[-79.377716,43.656385],[-79.377148,43.656501],[-79.376561,43.656649],[-79.375666,43.65682],[-79.374566,43.657067],[-79.373458,43.657303],[-79.373409,43.657328],[-79.373316,43.657402],[-79.373211,43.657513],[-79.373108,43.657614],[-79.37302,43.657707],[-79.372956,43.657787],[-79.372868,43.657888],[-79.372755,43.657974],[-79.372641,43.658042],[-79.372561,43.658091],[-79.372389,43.65817],[-79.372305,43.6582],[-79.372249,43.65822],[-79.372144,43.658251],[-79.372062,43.658258],[-79.371933,43.658273],[-79.37179,43.658282],[-79.371676,43.658288],[-79.371552,43.658296],[-79.371432,43.658301],[-79.371351,43.658296],[-79.371032,43.658294],[-79.370216,43.65849],[-79.369511,43.658659],[-79.368567,43.658871],[-79.367983,43.658983],[-79.367943,43.658991],[-79.367351,43.659122],[-79.366668,43.659292],[-79.366582,43.659312],[-79.366016,43.659441],[-79.366194,43.659881],[-79.366286,43.66011],[-79.366309,43.660167],[-79.366525,43.6607],[-79.366532,43.660718],[-79.366665,43.661043],[-79.366793,43.661357],[-79.367035,43.66195],[-79.366045,43.66217],[-79.365978,43.662185],[-79.364037,43.662587],[-79.363184,43.662791],[-79.362334,43.662971],[-79.361498,43.663158],[-79.360917,43.663291],[-79.360895,43.663296],[-79.360327,43.663426],[-79.359762,43.663553],[-79.359635,43.663582],[-79.359244,43.663707],[-79.358923,43.663799],[-79.356869,43.664375],[-79.356711,43.664423],[-79.356529,43.664478],[-79.35649,43.66449],[-79.356303,43.664533],[-79.355963,43.664602],[-79.355774,43.664644],[-79.355293,43.664781],[-79.355179,43.664814],[-79.355152,43.664821],[-79.354732,43.664938],[-79.354339,43.665048],[-79.353993,43.665144],[-79.353978,43.665148],[-79.353525,43.665273],[-79.352776,43.665482],[-79.352624,43.665486],[-79.352471,43.665486],[-79.35214,43.665559],[-79.349458,43.666151],[-79.348541,43.666356],[-79.347034,43.666678],[-79.345195,43.667094],[-79.343773,43.667415],[-79.342778,43.667636],[-79.342309,43.667754],[-79.341141,43.668016],[-79.340441,43.668164],[-79.3404,43.668173],[-79.338918,43.668503],[-79.337583,43.668796],[-79.336586,43.669018],[-79.335608,43.66925],[-79.333068,43.669814],[-79.332011,43.670033],[-79.331716,43.670086],[-79.330692,43.670319],[-79.33057,43.67035],[-79.328022,43.670923],[-79.326922,43.671186],[-79.325938,43.671401],[-79.325074,43.67158],[-79.324938,43.671611],[-79.32399,43.671844],[-79.322914,43.672081],[-79.321861,43.672313],[-79.321235,43.672471],[-79.3204,43.672666],[-79.319309,43.672908],[-79.320203,43.675065],[-79.3203,43.675337],[-79.320097,43.675447],[-79.320028,43.675491],[-79.319928,43.67553],[-79.319687,43.675644],[-79.319639,43.675671],[-79.319554,43.675698],[-79.319473,43.675716],[-79.319045,43.675805],[-79.318099,43.67593],[-79.317508,43.676015],[-79.31735,43.676041],[-79.31725,43.676064],[-79.317145,43.676089],[-79.316966,43.676176],[-79.316784,43.67627],[-79.315767,43.677155],[-79.315631,43.677276],[-79.31523,43.677843],[-79.315174,43.677933],[-79.315127,43.677986],[-79.314986,43.67809],[-79.314168,43.678696],[-79.313578,43.679154],[-79.31342,43.679262],[-79.312795,43.679724],[-79.312648,43.679828],[-79.312234,43.680138],[-79.311906,43.680376],[-79.311655,43.680479],[-79.310754,43.680793],[-79.309768,43.681271],[-79.308758,43.6818],[-79.308654,43.681847],[-79.308422,43.681963],[-79.308276,43.682031],[-79.30812,43.682087],[-79.307795,43.68217],[-79.306866,43.682426],[-79.30599,43.682653],[-79.305473,43.682808],[-79.304179,43.683083],[-79.302845,43.68337],[-79.301524,43.683657],[-79.300155,43.68395],[-79.300141,43.684005],[-79.300146,43.684068],[-79.300213,43.684241],[-79.300274,43.684438],[-79.300393,43.68482],[-79.300585,43.685276],[-79.300935,43.686107],[-79.301421,43.687254],[-79.301598,43.687675],[-79.301831,43.688145],[-79.302045,43.688598],[-79.302105,43.688724],[-79.302271,43.689084],[-79.301951,43.689153],[-79.301613,43.689236],[-79.301288,43.689316],[-79.301224,43.689316],[-79.301167,43.689307],[-79.30111,43.689283],[-79.301071,43.689254],[-79.30104,43.689211],[-79.301014,43.68916],[-79.301013,43.689107],[-79.301027,43.689057],[-79.301065,43.689018],[-79.301128,43.688984],[-79.301823,43.688801]]}},{"type":"Feature","properties":{"route_id":"507","short_name":"507","long_name":"Long Branch","color":"#ED1C24"},"geometry":{"type":"LineString","coordinates":[[-79.543605,43.592125],[-79.543771,43.592061],[-79.543858,43.592019],[-79.54389,43.591999],[-79.543916,43.591971],[-79.543931,43.591928],[-79.543931,43.591883],[-79.543912,43.591845],[-79.543872,43.591816],[-79.54381,43.591794],[-79.543736,43.591789],[-79.543702,43.591795],[-79.54358,43.591893],[-79.543402,43.592008],[-79.543255,43.592101],[-79.543247,43.592105],[-79.54306,43.592204],[-79.543043,43.592215],[-79.542891,43.592272],[-79.542834,43.592295],[-79.542568,43.592402],[-79.542421,43.592447],[-79.542155,43.5925],[-79.541795,43.592582],[-79.540601,43.59284],[-79.539402,43.593099],[-79.538616,43.593291],[-79.538393,43.593345],[-79.53818,43.593396],[-79.536999,43.593658],[-79.535608,43.593988],[-79.534016,43.594361],[-79.5324,43.594736],[-79.530991,43.595057],[-79.530305,43.595201],[-79.529768,43.595323],[-79.528302,43.595669],[-79.527616,43.595814],[-79.524995,43.596418],[-79.524411,43.59653],[-79.523697,43.596696],[-79.522493,43.596955],[-79.521725,43.597127],[-79.521318,43.597206],[-79.520241,43.597443],[-79.519144,43.597699],[-79.518047,43.597947],[-79.51695,43.598198],[-79.516026,43.598388],[-79.51506,43.598595],[-79.514443,43.598728],[-79.513947,43.598834],[-79.512977,43.599069],[-79.512912,43.599085],[-79.512367,43.599209],[-79.511861,43.599324],[-79.511849,43.599327],[-79.510774,43.599553],[-79.510616,43.599587],[-79.509711,43.599791],[-79.508647,43.600014],[-79.508632,43.600017],[-79.507618,43.600221],[-79.506432,43.600494],[-79.505274,43.600761],[-79.504143,43.601006],[-79.50303,43.601259],[-79.501881,43.601513],[-79.500763,43.601759],[-79.499653,43.601999],[-79.499504,43.602029],[-79.498499,43.602261],[-79.497958,43.60236],[-79.497274,43.602404],[-79.496001,43.602532],[-79.495852,43.602568],[-79.495726,43.602594],[-79.495588,43.602626],[-79.495285,43.602736],[-79.494701,43.602969],[-79.493834,43.603341],[-79.493165,43.603651],[-79.492989,43.603725],[-79.492787,43.603833],[-79.492569,43.603981],[-79.492339,43.604112],[-79.492106,43.604283],[-79.491857,43.604503],[-79.491633,43.604715],[-79.49145,43.60494],[-79.4913,43.605151],[-79.491147,43.605399],[-79.491007,43.605673],[-79.490855,43.605966],[-79.490734,43.606236],[-79.49063,43.606501],[-79.490559,43.606744],[-79.490525,43.606974],[-79.490381,43.608306],[-79.490343,43.608563],[-79.490274,43.60967],[-79.490133,43.610466],[-79.490059,43.610943],[-79.490029,43.611151],[-79.489887,43.612105],[-79.489882,43.612141],[-79.489786,43.61273],[-79.489713,43.613005],[-79.489633,43.613221],[-79.489465,43.613455],[-79.489314,43.613779],[-79.489162,43.614044],[-79.488664,43.614949],[-79.488231,43.615737],[-79.487348,43.61728],[-79.486918,43.618104],[-79.48647,43.618927],[-79.486193,43.619337],[-79.486107,43.619431],[-79.486039,43.619503],[-79.485962,43.619572],[-79.485921,43.619603],[-79.485877,43.619636],[-79.485778,43.619705],[-79.48567,43.619772],[-79.485549,43.619823],[-79.485419,43.619868],[-79.485278,43.619913],[-79.484262,43.62016],[-79.484158,43.620187],[-79.483998,43.620219],[-79.483922,43.620232],[-79.483883,43.620255],[-79.483838,43.620264],[-79.483431,43.620421],[-79.483267,43.620511],[-79.483234,43.620525],[-79.483182,43.620561],[-79.483077,43.620637],[-79.48293,43.620754],[-79.482749,43.620925],[-79.482574,43.621092],[-79.482478,43.621204],[-79.482227,43.621569],[-79.482028,43.621911],[-79.481972,43.621983],[-79.481349,43.62279],[-79.481211,43.622968],[-79.481518,43.623076],[-79.482486,43.623432],[-79.48314,43.623711],[-79.483407,43.623828],[-79.483688,43.624008],[-79.485238,43.625179],[-79.485957,43.625702],[-79.48663,43.626196],[-79.486723,43.626274],[-79.486824,43.626358],[-79.486957,43.626471],[-79.487236,43.626693],[-79.487726,43.627083],[-79.487754,43.627105],[-79.488668,43.627762],[-79.488772,43.627839],[-79.488847,43.627897],[-79.490056,43.628856],[-79.490364,43.62905],[-79.486735,43.629837],[-79.485251,43.630152],[-79.484262,43.630381],[-79.483074,43.630642],[-79.481516,43.630971],[-79.480866,43.631105],[-79.480385,43.631168],[-79.479854,43.631153],[-79.479647,43.631167],[-79.479287,43.631196],[-79.479136,43.6312],[-79.478983,43.631192],[-79.478869,43.631188]]}},{"type":"Feature","properties":{"route_id":"509","short_name":"509","long_name":"Harbourfront","color":"#ED1C24"},"geometry":{"type":"LineString","coordinates":[[-79.379121,43.645601],[-79.379161,43.645547],[-79.379165,43.645492],[-79.379138,43.645436],[-79.379096,43.645391],[-79.379024,43.645342],[-79.378957,43.645326],[-79.378877,43.64531],[-79.378822,43.645306],[-79.378762,43.645168],[-79.378627,43.644861],[-79.378477,43.644513],[-79.377912,43.643217],[-79.377865,43.643109],[-79.377823,43.643006],[-79.377789,43.642922],[-79.377686,43.64265],[-79.377557,43.642303],[-79.377461,43.642078],[-79.376841,43.641152],[-79.379136,43.640359],[-79.380205,43.639962],[-79.380238,43.639953],[-79.38027,43.639939],[-79.380304,43.63993],[-79.380329,43.639923],[-79.380337,43.639921],[-79.380371,43.639912],[-79.380405,43.639903],[-79.380439,43.639899],[-79.380474,43.639894],[-79.380508,43.63989],[-79.380543,43.639881],[-79.380578,43.639877],[-79.380613,43.639872],[-79.380648,43.639868],[-79.382623,43.639523],[-79.382724,43.639505],[-79.38442,43.63921],[-79.385463,43.639029],[-79.386573,43.638854],[-79.386751,43.638826],[-79.387608,43.638615],[-79.388636,43.638355],[-79.38957,43.638149],[-79.390645,43.637916],[-79.390911,43.637858],[-79.391597,43.63771],[-79.391889,43.637653],[-79.392811,43.637464],[-79.392951,43.637442],[-79.393132,43.637416],[-79.39331,43.637404],[-79.393464,43.637396],[-79.393652,43.637398],[-79.39398,43.637368],[-79.394372,43.637323],[-79.394431,43.637316],[-79.394912,43.637228],[-79.396233,43.636837],[-79.396729,43.636671],[-79.396978,43.63658],[-79.396991,43.636576],[-79.397023,43.636567],[-79.397054,43.636558],[-79.397086,43.636545],[-79.397117,43.636536],[-79.397147,43.636527],[-79.397177,43.636513],[-79.397207,43.636504],[-79.397237,43.636491],[-79.397265,43.636477],[-79.397294,43.636464],[-79.397322,43.63645],[-79.39735,43.636433],[-79.397377,43.636419],[-79.397403,43.636406],[-79.397429,43.636388],[-79.397455,43.636374],[-79.398244,43.635758],[-79.398365,43.635675],[-79.398403,43.635714],[-79.398476,43.635778],[-79.398594,43.635858],[-79.398697,43.635923],[-79.398783,43.635974],[-79.39885,43.636009],[-79.398936,43.636054],[-79.399368,43.636259],[-79.39944,43.636302],[-79.399494,43.636339],[-79.399577,43.636404],[-79.399609,43.636434],[-79.399646,43.63648],[-79.399649,43.636484],[-79.39972,43.636631],[-79.400268,43.636444],[-79.40077,43.636282],[-79.400879,43.636254],[-79.401058,43.636209],[-79.401431,43.636127],[-79.402019,43.636041],[-79.402089,43.636034],[-79.403044,43.635944],[-79.403549,43.635913],[-79.403729,43.635902],[-79.404098,43.635927],[-79.404235,43.635936],[-79.40429,43.635944],[-79.404369,43.635956],[-79.404708,43.636027],[-79.404807,43.636053],[-79.404945,43.636089],[-79.405224,43.636131],[-79.405237,43.636133],[-79.405412,43.636169],[-79.405483,43.636183],[-79.405738,43.636252],[-79.405997,43.636305],[-79.406299,43.636341],[-79.406606,43.636375],[-79.406802,43.63639],[-79.406841,43.636392],[-79.406895,43.636395],[-79.40712,43.636405],[-79.407374,43.636414],[-79.407609,43.636393],[-79.407809,43.636375],[-79.408654,43.63634],[-79.40964,43.636249],[-79.409826,43.636236],[-79.410385,43.636242],[-79.410584,43.636266],[-79.411482,43.636509],[-79.411615,43.636551],[-79.411722,43.636599],[-79.411811,43.636664],[-79.411994,43.636817],[-79.41211,43.636892],[-79.412241,43.636954],[-79.412394,43.636992],[-79.412786,43.637135],[-79.412869,43.637164],[-79.412898,43.637174],[-79.412998,43.637205],[-79.413064,43.637226],[-79.41313,43.637239],[-79.413149,43.637243],[-79.413191,43.637251],[-79.413395,43.637242],[-79.413652,43.637193],[-79.418188,43.635908],[-79.418288,43.635869],[-79.418335,43.635842],[-79.418368,43.635803],[-79.418371,43.635787],[-79.418379,43.635755],[-79.418365,43.635714],[-79.418345,43.635691],[-79.418322,43.635664],[-79.418266,43.635636],[-79.418139,43.635629],[-79.418014,43.63565],[-79.413763,43.636849]]}},{"type":"Feature","properties":{"route_id":"510","short_name":"510","long_name":"Spadina","color":"#ED1C24"},"geometry":{"type":"LineString","coordinates":[[-79.379121,43.645601],[-79.379161,43.645547],[-79.379165,43.645492],[-79.379138,43.645436],[-79.379096,43.645391],[-79.379024,43.645342],[-79.378957,43.645326],[-79.378877,43.64531],[-79.378822,43.645306],[-79.378762,43.645168],[-79.378627,43.644861],[-79.378477,43.644513],[-79.377912,43.643217],[-79.377865,43.643109],[-79.377823,43.643006],[-79.377789,43.642922],[-79.377686,43.64265],[-79.377557,43.642303],[-79.377461,43.642078],[-79.376841,43.641152],[-79.379136,43.640359],[-79.380205,43.639962],[-79.380238,43.639953],[-79.38027,43.639939],[-79.380304,43.63993],[-79.380329,43.639923],[-79.380337,43.639921],[-79.380371,43.639912],[-79.380405,43.639903],[-79.380439,43.639899],[-79.380474,43.639894],[-79.380508,43.63989],[-79.380543,43.639881],[-79.380578,43.639877],[-79.380613,43.639872],[-79.380648,43.639868],[-79.382623,43.639523],[-79.382724,43.639505],[-79.38442,43.63921],[-79.385463,43.639029],[-79.386573,43.638854],[-79.386751,43.638826],[-79.387608,43.638615],[-79.388636,43.638355],[-79.38957,43.638149],[-79.390645,43.637916],[-79.390911,43.637858],[-79.391597,43.63771],[-79.391889,43.637653],[-79.392173,43.638327],[-79.392226,43.638453],[-79.392298,43.638634],[-79.392302,43.638642],[-79.392339,43.638748],[-79.392364,43.63882],[-79.392435,43.639025],[-79.393004,43.640562],[-79.393344,43.641344],[-79.393399,43.641479],[-79.393425,43.641543],[-79.393515,43.641761],[-79.39369,43.642171],[-79.393928,43.642738],[-79.394113,43.643171],[-79.394292,43.64359],[-79.394487,43.64403],[-79.394575,43.644282],[-79.394624,43.644422],[-79.394772,43.644788],[-79.394785,43.644821],[-79.394888,43.645078],[-79.395046,43.64547],[-79.395251,43.645948],[-79.395365,43.646214],[-79.39557,43.64674],[-79.395829,43.647397],[-79.395969,43.647807],[-79.396074,43.648033],[-79.396199,43.648331],[-79.396212,43.648361],[-79.396381,43.648765],[-79.396638,43.649437],[-79.396884,43.650069],[-79.397239,43.650902],[-79.397644,43.651876],[-79.397792,43.65226],[-79.397803,43.652289],[-79.398049,43.652944],[-79.398445,43.653896],[-79.398644,43.654403],[-79.39883,43.654914],[-79.398926,43.655138],[-79.399231,43.655851],[-79.399315,43.656102],[-79.399591,43.656749],[-79.399841,43.657404],[-79.399853,43.657437],[-79.400048,43.657948],[-79.400217,43.658359],[-79.400254,43.658449],[-79.400469,43.658972],[-79.400404,43.659039],[-79.400365,43.659079],[-79.400294,43.659158],[-79.400186,43.65924],[-79.400087,43.65933],[-79.400016,43.659427],[-79.39996,43.659511],[-79.399923,43.659606],[-79.399909,43.659669],[-79.39992,43.659802],[-79.399953,43.659889],[-79.399974,43.659933],[-79.400034,43.660019],[-79.40012,43.660097],[-79.400246,43.660176],[-79.400368,43.660235],[-79.40054,43.66028],[-79.400701,43.660308],[-79.401029,43.660367],[-79.40109,43.660516],[-79.40141,43.661302],[-79.401747,43.662156],[-79.401772,43.662218],[-79.402109,43.663052],[-79.402414,43.663852],[-79.402744,43.664655],[-79.403109,43.66551],[-79.403548,43.666338],[-79.403548,43.666453],[-79.40351,43.666558],[-79.403431,43.666639],[-79.403343,43.666696],[-79.403006,43.666841],[-79.402808,43.666927],[-79.40276,43.667015],[-79.40276,43.667041],[-79.402758,43.667132],[-79.402758,43.667132],[-79.402758,43.667132],[-79.402818,43.667247],[-79.402863,43.6673],[-79.402946,43.66734],[-79.403034,43.667357],[-79.403126,43.667344]]}},{"type":"Feature","properties":{"route_id":"511","short_name":"511","long_name":"Bathurst","color":"#ED1C24"},"geometry":{"type":"LineString","coordinates":[[-79.411308,43.666513],[-79.41131,43.66676],[-79.41134,43.666812],[-79.411446,43.666866],[-79.411855,43.666787],[-79.411788,43.66662],[-79.411438,43.665705],[-79.411414,43.665643],[-79.411357,43.665493],[-79.411212,43.665115],[-79.410716,43.66383],[-79.410249,43.662669],[-79.409769,43.661514],[-79.409436,43.660705],[-79.409089,43.659806],[-79.408468,43.658289],[-79.407722,43.656481],[-79.407538,43.656026],[-79.406835,43.654287],[-79.406022,43.652311],[-79.405652,43.651387],[-79.405604,43.651267],[-79.405499,43.651004],[-79.405454,43.650889],[-79.405248,43.650362],[-79.40501,43.649754],[-79.404702,43.648968],[-79.404649,43.648831],[-79.404602,43.648711],[-79.404589,43.648679],[-79.404432,43.648288],[-79.40434,43.648057],[-79.404327,43.648026],[-79.404189,43.647676],[-79.40401,43.647188],[-79.403889,43.646822],[-79.40376,43.646471],[-79.403369,43.645516],[-79.403233,43.645192],[-79.403105,43.64489],[-79.402955,43.644541],[-79.4029,43.644412],[-79.402705,43.643926],[-79.402396,43.643194],[-79.402195,43.642655],[-79.401895,43.641915],[-79.401736,43.641523],[-79.401681,43.641388],[-79.401421,43.640749],[-79.401348,43.640555],[-79.401271,43.640369],[-79.400662,43.638872],[-79.400649,43.638839],[-79.400435,43.638312],[-79.400346,43.638108],[-79.400309,43.638024],[-79.400286,43.637959],[-79.40024,43.637856],[-79.40003,43.637371],[-79.400017,43.637341],[-79.399815,43.636826],[-79.39972,43.636631],[-79.400268,43.636444],[-79.40077,43.636282],[-79.400879,43.636254],[-79.401058,43.636209],[-79.401431,43.636127],[-79.402019,43.636041],[-79.402089,43.636034],[-79.403044,43.635944],[-79.403549,43.635913],[-79.403729,43.635902],[-79.404098,43.635927],[-79.404235,43.635936],[-79.40429,43.635944],[-79.404369,43.635956],[-79.404708,43.636027],[-79.404807,43.636053],[-79.404945,43.636089],[-79.405224,43.636131],[-79.405237,43.636133],[-79.405412,43.636169],[-79.405483,43.636183],[-79.405738,43.636252],[-79.405997,43.636305],[-79.406299,43.636341],[-79.406606,43.636375],[-79.406802,43.63639],[-79.406841,43.636392],[-79.406895,43.636395],[-79.40712,43.636405],[-79.407374,43.636414],[-79.407609,43.636393],[-79.407809,43.636375],[-79.408654,43.63634],[-79.40964,43.636249],[-79.409826,43.636236],[-79.410385,43.636242],[-79.410584,43.636266],[-79.411482,43.636509],[-79.411615,43.636551],[-79.411722,43.636599],[-79.411811,43.636664],[-79.411994,43.636817],[-79.41211,43.636892],[-79.412241,43.636954],[-79.412394,43.636992],[-79.412786,43.637135],[-79.412869,43.637164],[-79.412898,43.637174],[-79.412998,43.637205],[-79.413064,43.637226],[-79.41313,43.637239],[-79.413149,43.637243],[-79.413191,43.637251],[-79.413395,43.637242],[-79.413652,43.637193],[-79.418188,43.635908],[-79.418288,43.635869],[-79.418335,43.635842],[-79.418368,43.635803],[-79.418371,43.635787],[-79.418379,43.635755],[-79.418365,43.635714],[-79.418345,43.635691],[-79.418322,43.635664],[-79.418266,43.635636],[-79.418139,43.635629],[-79.418014,43.63565],[-79.413763,43.636849]]}},{"type":"Feature","properties":{"route_id":"512","short_name":"512","long_name":"St Clair","color":"#ED1C24"},"geometry":{"type":"LineString","coordinates":[[-79.392633,43.687762],[-79.391522,43.688015],[-79.391483,43.68803],[-79.391446,43.68805],[-79.391412,43.688075],[-79.391383,43.688105],[-79.391358,43.688139],[-79.391365,43.688215],[-79.39139,43.688286],[-79.391449,43.688466],[-79.39148,43.68864],[-79.392634,43.688398],[-79.393366,43.688232],[-79.393585,43.688183],[-79.39413,43.688076],[-79.397963,43.687308],[-79.399856,43.686929],[-79.400756,43.686755],[-79.401483,43.686634],[-79.403139,43.686304],[-79.40387,43.686137],[-79.404775,43.685963],[-79.406323,43.685656],[-79.407893,43.685341],[-79.409351,43.685018],[-79.411157,43.684618],[-79.4123,43.68439],[-79.412531,43.684339],[-79.413394,43.684163],[-79.413514,43.684138],[-79.41508,43.683807],[-79.415148,43.683793],[-79.415331,43.683754],[-79.415345,43.683776],[-79.415351,43.683781],[-79.415368,43.6838],[-79.415393,43.683819],[-79.415461,43.68388],[-79.415612,43.684009],[-79.415621,43.684026],[-79.415732,43.684252],[-79.415828,43.684546],[-79.415822,43.68461],[-79.415763,43.684653],[-79.415642,43.684673],[-79.415293,43.684733],[-79.415201,43.684716],[-79.41515,43.684648],[-79.415087,43.684527],[-79.415068,43.684474],[-79.415071,43.684427],[-79.415111,43.684128],[-79.415136,43.683933],[-79.415149,43.683872],[-79.415153,43.683845],[-79.415153,43.683819],[-79.415148,43.683793],[-79.415331,43.683754],[-79.415343,43.683752],[-79.415921,43.683633],[-79.416141,43.68359],[-79.417141,43.683393],[-79.418289,43.68316],[-79.419533,43.682921],[-79.420212,43.682766],[-79.421963,43.682412],[-79.423197,43.682192],[-79.423441,43.682135],[-79.424559,43.681941],[-79.425708,43.681702],[-79.426173,43.68162],[-79.42769,43.681293],[-79.428859,43.681042],[-79.429439,43.680922],[-79.430102,43.680785],[-79.430729,43.680644],[-79.431281,43.68052],[-79.432492,43.680269],[-79.433637,43.680016],[-79.434674,43.679808],[-79.435678,43.679585],[-79.435901,43.679541],[-79.436578,43.679391],[-79.437549,43.679172],[-79.438587,43.678938],[-79.43876,43.678916],[-79.439744,43.678685],[-79.440844,43.678429],[-79.441963,43.678178],[-79.443071,43.677954],[-79.445059,43.677497],[-79.445652,43.677365],[-79.446212,43.677258],[-79.447419,43.677],[-79.448143,43.676833],[-79.448625,43.676726],[-79.449415,43.676549],[-79.449816,43.676461],[-79.450591,43.676296],[-79.451133,43.676175],[-79.453495,43.675643],[-79.454763,43.675347],[-79.455314,43.675229],[-79.455956,43.675092],[-79.45599,43.675085],[-79.457115,43.674838],[-79.457637,43.674715],[-79.458708,43.674481],[-79.458958,43.674424],[-79.460008,43.674188],[-79.460515,43.674079],[-79.461218,43.673929],[-79.461527,43.673869],[-79.461903,43.673783],[-79.462507,43.673648],[-79.46304,43.673529],[-79.463609,43.673402],[-79.465665,43.672944],[-79.466588,43.672733],[-79.46706,43.672638],[-79.467623,43.672534],[-79.471124,43.671781],[-79.471253,43.672118],[-79.471289,43.672212],[-79.471326,43.672269],[-79.471404,43.672323],[-79.471509,43.672321],[-79.471585,43.672297],[-79.471649,43.672247],[-79.471856,43.671819]]}},{"type":"Feature","properties":{"route_id":"6","short_name":"6","long_name":"Line 6 Finch West","color":"#808080"},"geometry":{"type":"LineString","coordinates":[[-79.601361,43.729937],[-79.601602,43.730472],[-79.602935,43.733491],[-79.6032,43.734134],[-79.603087,43.734169],[-79.601001,43.734632],[-79.599163,43.73505],[-79.598859,43.735118],[-79.598185,43.735271],[-79.594956,43.736017],[-79.591703,43.736772],[-79.591075,43.736939],[-79.590942,43.736974],[-79.590724,43.737045],[-79.590522,43.737121],[-79.590382,43.73722],[-79.590237,43.73732],[-79.590123,43.737449],[-79.590088,43.73752],[-79.590054,43.737611],[-79.590028,43.737738],[-79.58999,43.738073],[-79.589906,43.738808],[-79.589867,43.739086],[-79.589847,43.739222],[-79.58973,43.739854],[-79.589703,43.740001],[-79.589664,43.74012],[-79.589616,43.74025],[-79.589232,43.741093],[-79.588806,43.742032],[-79.588701,43.742224],[-79.588583,43.742383],[-79.588443,43.742532],[-79.588283,43.742669],[-79.588103,43.742793],[-79.587906,43.742902],[-79.587694,43.742996],[-79.58747,43.743073],[-79.587279,43.743123],[-79.586257,43.743355],[-79.586049,43.743396],[-79.585805,43.743431],[-79.585558,43.743451],[-79.58531,43.743457],[-79.585062,43.743449],[-79.58482,43.743426],[-79.584608,43.743395],[-79.58398,43.743285],[-79.583848,43.743264],[-79.583604,43.743232],[-79.583357,43.743211],[-79.583109,43.7432],[-79.582861,43.743199],[-79.582613,43.743209],[-79.582366,43.743228],[-79.582116,43.743263],[-79.581945,43.743284],[-79.57959,43.743627],[-79.579451,43.743657],[-79.578401,43.743885],[-79.573466,43.745071],[-79.570882,43.745713],[-79.568621,43.746247],[-79.56828,43.74632],[-79.568154,43.746346],[-79.567711,43.74643],[-79.567339,43.746541],[-79.566901,43.746634],[-79.566545,43.74674],[-79.566125,43.746868],[-79.566033,43.74689],[-79.565783,43.746948],[-79.565546,43.747011],[-79.565076,43.747135],[-79.564714,43.747232],[-79.564415,43.74731],[-79.562359,43.747765],[-79.558784,43.748557],[-79.557633,43.748794],[-79.552316,43.749944],[-79.549075,43.750648],[-79.547519,43.750981],[-79.545924,43.751322],[-79.545698,43.751369],[-79.545566,43.751396],[-79.545039,43.751542],[-79.544564,43.751648],[-79.544084,43.751747],[-79.543518,43.751862],[-79.543043,43.751947],[-79.54238,43.752089],[-79.541728,43.752162],[-79.540601,43.752357],[-79.539969,43.752492],[-79.53821,43.752868],[-79.537696,43.752977],[-79.537107,43.753103],[-79.537028,43.75312],[-79.536263,43.75329],[-79.535571,43.753413],[-79.534531,43.753642],[-79.532766,43.754029],[-79.530904,43.754436],[-79.530757,43.754469],[-79.530563,43.754509],[-79.530419,43.754541],[-79.528528,43.754956],[-79.526906,43.755312],[-79.524287,43.755928],[-79.522508,43.756348],[-79.520702,43.756732],[-79.51955,43.757005],[-79.519332,43.757048],[-79.518967,43.75713],[-79.518564,43.757162],[-79.518078,43.757209],[-79.517731,43.757234],[-79.516959,43.75731],[-79.51679,43.757338],[-79.516445,43.757386],[-79.516289,43.75742],[-79.516161,43.757441],[-79.51601,43.757469],[-79.515823,43.757508],[-79.515606,43.757555],[-79.515363,43.757612],[-79.513445,43.758059],[-79.509554,43.758911],[-79.508874,43.759067],[-79.50793,43.759283],[-79.505287,43.759873],[-79.504882,43.759963],[-79.503352,43.760308],[-79.500004,43.761063],[-79.498354,43.761421],[-79.497067,43.761701],[-79.496069,43.761927],[-79.495271,43.762109],[-79.494918,43.76218],[-79.494558,43.762267],[-79.494395,43.762313],[-79.494297,43.762335],[-79.494134,43.762395],[-79.494043,43.76243],[-79.493918,43.762473],[-79.493826,43.762516],[-79.493642,43.7626],[-79.493531,43.762661],[-79.493452,43.762691],[-79.493289,43.762777],[-79.493195,43.762824],[-79.492964,43.762944],[-79.492817,43.763014],[-79.492659,43.763075],[-79.49246,43.763158],[-79.492263,43.763216],[-79.492063,43.76327],[-79.49189,43.763322],[-79.490716,43.763224]]}}]}